{
"type": "FeatureCollection",
"name": "NCBGF_Properties",
"crs": { "type": "name", "properties": { "name": "urn:ogc:def:crs:OGC:1.3:CRS84" } },
"features": [
{ "type": "Feature", "properties": { "OBJECTID": 2, "PIN": "9797295671", "PINSTATUS": "A", "OWNER_TYPE": null, "IOFLAG": "N", "OWNER1_LAST": "BOTANICAL GARDEN FOUNDATION", "OWNER1_FIRST": "INC", "OWNER2_LAST": null, "OWNER2_FIRST": null, "ADDRESS1": "CB#3375", "ADDRESS2": "UNC-CH", "CITY": "CHAPEL HILL", "STATE": "NC", "ZIPCODE": "27599", "TOWNSHIP": "7", "SIZE_": 50.48, "UOM": "A", "CALC_ACRES": 51.01, "SUBCODE": 2679, "LEGAL_DESC": "OPEN SPACE HUNT'S RESERVE P78/3", "RATECODE1": "14", "LANDVALUE": 923800, "BLDGVALUE": 0, "BLDGCNT": null, "VALUATION": 923800, "TAXSTATUS": "A", "FARMUSE": null, "USEVALUE": 0, "DEEDREF": "1565/37", "LEGALREF": null, "DATESOLD": "Mar 24 1997 12:00AM", "TAXSTAMPS": 0, "Name": "Laurel Hill Nature Preserve", "Acres": 76, "Shape__Area": 464579.6484375, "Shape__Length": 4444.5085265122798 }, "geometry": { "type": "Polygon", "coordinates": [ [ [ -79.022692917754298, 35.893349846671804 ], [ -79.021944445908105, 35.892546962891601 ], [ -79.021919514600299, 35.890657244683602 ], [ -79.021938971707002, 35.888805855144497 ], [ -79.021926811929504, 35.888278355220102 ], [ -79.021933912330994, 35.886482036271403 ], [ -79.021924718855203, 35.885276536731297 ], [ -79.021925661025804, 35.884255580162602 ], [ -79.023892364374205, 35.884262636925897 ], [ -79.023892014991503, 35.885154189290702 ], [ -79.023892017041206, 35.885154475526001 ], [ -79.023892660462906, 35.885250402725703 ], [ -79.023897999327502, 35.886047185698501 ], [ -79.024996004531999, 35.887590754416799 ], [ -79.024997143797407, 35.887592394040396 ], [ -79.025217360098694, 35.887909480750601 ], [ -79.025204949351604, 35.888368246644397 ], [ -79.0254855577396, 35.888376318064097 ], [ -79.024974338157605, 35.888822164944202 ], [ -79.024184456355798, 35.889511026117802 ], [ -79.024073496789399, 35.891000368696297 ], [ -79.0261078501334, 35.8917651716325 ], [ -79.026164559788299, 35.892255702247098 ], [ -79.026250049917095, 35.892992614820599 ], [ -79.027496591295105, 35.892656128571701 ], [ -79.027509526874994, 35.892228252422299 ], [ -79.029030076699897, 35.892267873803199 ], [ -79.029987240319102, 35.892329435438903 ], [ -79.027001794658602, 35.893348882685302 ], [ -79.026170060153206, 35.893583449481802 ], [ -79.025108136523201, 35.894589677468197 ], [ -79.025056648110194, 35.894589345851998 ], [ -79.023820938804207, 35.894587042873297 ], [ -79.022692917754298, 35.893349846671804 ] ] ] } },
{ "type": "Feature", "properties": { "OBJECTID": 3, "PIN": "9797051431", "PINSTATUS": "A", "OWNER_TYPE": null, "IOFLAG": "N", "OWNER1_LAST": "NORTH CAROLINA BOTANICAL", "OWNER1_FIRST": "GARDEN FOUNDATION INC", "OWNER2_LAST": null, "OWNER2_FIRST": null, "ADDRESS1": "CB 3375", "ADDRESS2": "UNC CHAPEL HILL", "CITY": "CHAPEL HILL", "STATE": "NC", "ZIPCODE": "27599", "TOWNSHIP": "7", "SIZE_": 12.8, "UOM": "A", "CALC_ACRES": 11.42, "SUBCODE": null, "LEGAL_DESC": "S/S SR 1916 P120/103", "RATECODE1": "17", "LANDVALUE": 71500, "BLDGVALUE": 0, "BLDGCNT": null, "VALUATION": 71500, "TAXSTATUS": "A", "FARMUSE": null, "USEVALUE": 0, "DEEDREF": "6616/2081", "LEGALREF": null, "DATESOLD": "Jun 27 2019 12:00AM", "TAXSTAMPS": 1450, "Name": "Cochrane Tract", "Acres": 12, "Shape__Area": 70579.75, "Shape__Length": 1118.2918145978399 }, "geometry": { "type": "Polygon", "coordinates": [ [ [ -79.033491748625394, 35.8813726558921 ], [ -79.033482887697105, 35.881374718744702 ], [ -79.033339858767704, 35.881413909100203 ], [ -79.033244511864794, 35.881454114512003 ], [ -79.033220887233, 35.881465110654197 ], [ -79.033214558370304, 35.8814678596042 ], [ -79.033173214508807, 35.881487101441003 ], [ -79.033167308030698, 35.8814896791717 ], [ -79.033161402604904, 35.881492428003803 ], [ -79.033155072685105, 35.881495005049501 ], [ -79.033149166276402, 35.881497754680801 ], [ -79.033119634855296, 35.881510640127203 ], [ -79.033113305915606, 35.881513217970003 ], [ -79.033101492950607, 35.881518371826203 ], [ -79.033095586397494, 35.8815207776519 ], [ -79.033089680896595, 35.881523354579102 ], [ -79.033077445400295, 35.881528337445502 ], [ -79.033059725945904, 35.881536069023703 ], [ -79.033053819390204, 35.881538474847403 ], [ -79.033047912904493, 35.881541052572203 ], [ -79.033041584871896, 35.881543457710002 ], [ -79.033029771898299, 35.881548612358699 ], [ -79.033023865340795, 35.8815510181809 ], [ -79.033017958852895, 35.881553595104798 ], [ -79.033011630888694, 35.881556172142503 ], [ -79.033005725382793, 35.881558749865 ], [ -79.032999816788703, 35.881560983785 ], [ -79.032988004792003, 35.881566137629903 ], [ -79.032981676755995, 35.8815685435641 ], [ -79.032975770265395, 35.881571120485901 ], [ -79.032951721631306, 35.881580914178997 ], [ -79.032939909628993, 35.881586068818699 ], [ -79.032933580537403, 35.881588302849003 ], [ -79.032927674043805, 35.881590879768503 ], [ -79.032921767480303, 35.881593285585701 ], [ -79.032915860985995, 35.881595862504597 ], [ -79.032909532945496, 35.8815982684349 ], [ -79.032903627433001, 35.881600845352999 ], [ -79.032897718832999, 35.881603079267997 ], [ -79.032891813320006, 35.881605656985101 ], [ -79.032885485277703, 35.881608062114701 ], [ -79.032879578781603, 35.881610639831202 ], [ -79.032873672214706, 35.881613044846603 ], [ -79.032867343189196, 35.881615450775001 ], [ -79.032861436691604, 35.881618027691303 ], [ -79.032855531106506, 35.881620433504999 ], [ -79.032849624608403, 35.881623011220199 ], [ -79.032843294598507, 35.881625416348101 ], [ -79.0328373890124, 35.881627822160901 ], [ -79.032831482512904, 35.881630399075704 ], [ -79.032825154467204, 35.881632805001701 ], [ -79.032819247897095, 35.881635210014302 ], [ -79.032813341396903, 35.881637787727797 ], [ -79.032807013349696, 35.881640192853197 ], [ -79.032801106778905, 35.881642598664499 ], [ -79.032795200277207, 35.881645175577603 ], [ -79.032789293705704, 35.8816475813883 ], [ -79.032782964674496, 35.881649986512798 ], [ -79.032777058102297, 35.881652392322898 ], [ -79.032771151599107, 35.881654969234802 ], [ -79.032764823549698, 35.881657375157602 ], [ -79.032753010402402, 35.881662185976303 ], [ -79.032746682351799, 35.881664591898101 ], [ -79.032722633662004, 35.881674385545701 ], [ -79.032716305609299, 35.881676790666397 ], [ -79.032704492456901, 35.8816816030795 ], [ -79.032698164403001, 35.881684008199301 ], [ -79.032686351247904, 35.881688819011501 ], [ -79.032680022210499, 35.881691224130599 ], [ -79.032674115632105, 35.881693629935697 ], [ -79.032667787577097, 35.881696036652997 ], [ -79.032655974418006, 35.881700846662703 ], [ -79.032649646361506, 35.881703252579499 ], [ -79.032643739781093, 35.881705657583602 ], [ -79.032637410741401, 35.8817080635 ], [ -79.032625597579099, 35.881712874306302 ], [ -79.032619269520794, 35.881715280221499 ], [ -79.032613362938505, 35.881717685224103 ], [ -79.032607034879405, 35.881720091138703 ], [ -79.032595221713606, 35.881724901942 ], [ -79.032588891618801, 35.881727135155103 ], [ -79.0325829860179, 35.881729541755 ], [ -79.032576657957094, 35.881731947668001 ], [ -79.032570751372305, 35.881734352668602 ], [ -79.032564423310404, 35.881736757781397 ], [ -79.032558516655996, 35.881738991679299 ], [ -79.032552187611202, 35.881741397591298 ], [ -79.032540373456399, 35.8817462083896 ], [ -79.032534046306196, 35.881748442398603 ], [ -79.032528139719304, 35.881750848196504 ], [ -79.032521811654803, 35.881753253307103 ], [ -79.0325159050672, 35.881755659104499 ], [ -79.032509575950598, 35.881757893112699 ], [ -79.032503669362399, 35.881760298909597 ], [ -79.032497341296406, 35.881762704018897 ], [ -79.032491434638303, 35.881764937913601 ], [ -79.032485104606906, 35.881767343822297 ], [ -79.032479198930602, 35.881769577716199 ], [ -79.032472870862804, 35.881771982024603 ], [ -79.0324669642727, 35.881774388619199 ], [ -79.032454729544398, 35.881779027619501 ], [ -79.032334482501, 35.881815118897499 ], [ -79.032297009684399, 35.880973114274198 ], [ -79.032261696233903, 35.880249581812301 ], [ -79.032692439009594, 35.880065739465898 ], [ -79.033372935285499, 35.879782579493103 ], [ -79.033491062024893, 35.879733094609001 ], [ -79.033780049603493, 35.879611102264199 ], [ -79.033973688531205, 35.879523305877498 ], [ -79.034583714100194, 35.879248058182696 ], [ -79.034822696113807, 35.879610787460997 ], [ -79.035079406425297, 35.879982438818601 ], [ -79.035505855451902, 35.880599910761099 ], [ -79.035531610665103, 35.8806363032243 ], [ -79.035524859870804, 35.880637678804298 ], [ -79.035512202357495, 35.880640773520703 ], [ -79.035505451638002, 35.880642321001197 ], [ -79.035492796087794, 35.880645414915499 ], [ -79.035486043478201, 35.880647134297 ], [ -79.035473386944702, 35.880650229808602 ], [ -79.035466636298807, 35.880651948389001 ], [ -79.035460307048794, 35.880653495744497 ], [ -79.035441321487795, 35.880658651913897 ], [ -79.035434570840906, 35.880660371292102 ], [ -79.035409256100394, 35.880667247511496 ], [ -79.035402927980797, 35.880669137867301 ], [ -79.035396177332601, 35.880670858042798 ], [ -79.035389850194505, 35.880672747598098 ], [ -79.035383520034301, 35.880674466851502 ], [ -79.035339220236594, 35.880687700925598 ], [ -79.035332891206906, 35.880689763979198 ], [ -79.0353265630838, 35.880691654331002 ], [ -79.035320235035599, 35.880693716584098 ], [ -79.035313905929399, 35.880695606935497 ], [ -79.035301249831804, 35.880699732239499 ], [ -79.035295343253793, 35.880701794369202 ], [ -79.0352890141465, 35.8807036847194 ], [ -79.035282685113899, 35.880705746970797 ], [ -79.0352763571385, 35.880707981123102 ], [ -79.035270029087698, 35.880710043373597 ], [ -79.035264122508593, 35.880712106301402 ], [ -79.035257793474699, 35.880714168551499 ], [ -79.035251465498007, 35.880716402702497 ], [ -79.035245137445898, 35.880718464951698 ], [ -79.035239231922603, 35.880720698979999 ], [ -79.035232901979498, 35.880722932331103 ], [ -79.035226573926906, 35.880724995378799 ], [ -79.035220667419694, 35.880727228607 ], [ -79.035208010479394, 35.880731696905102 ], [ -79.035202103971599, 35.880733930931903 ], [ -79.035195775991795, 35.880736165080101 ], [ -79.035189870540606, 35.880738571007498 ], [ -79.0351835405949, 35.880740804356002 ], [ -79.035177634160902, 35.880743211082802 ], [ -79.035171306179393, 35.880745444430097 ], [ -79.0351653997444, 35.880747850356698 ], [ -79.035159070780395, 35.880750085302701 ], [ -79.035153165326406, 35.880752489629401 ], [ -79.035146836436496, 35.880754896476297 ], [ -79.0351409299994, 35.880757300802699 ], [ -79.035134603073303, 35.880759706848799 ], [ -79.035122789215905, 35.880764517898903 ], [ -79.035116460323806, 35.880766923944797 ], [ -79.035110553959996, 35.8807695009707 ], [ -79.035104648503804, 35.880771906893997 ], [ -79.035098742139297, 35.880774483919403 ], [ -79.035092413245593, 35.880776889963897 ], [ -79.035074694148605, 35.8807846210374 ], [ -79.035062459869394, 35.880789604903597 ], [ -79.035056553576794, 35.880792353828397 ], [ -79.035038834473198, 35.880800085696102 ], [ -79.035032928179106, 35.8808028346198 ], [ -79.035027021810293, 35.880805412441198 ], [ -79.035021115515306, 35.8808081613643 ], [ -79.035015210127895, 35.8808107383853 ], [ -79.034997491239395, 35.880818985152203 ], [ -79.034992006414896, 35.880821734752402 ], [ -79.034968382205605, 35.880832730436097 ], [ -79.034962897453596, 35.8808356519366 ], [ -79.034951928632594, 35.880840805731403 ], [ -79.034204354708507, 35.881165717340501 ], [ -79.034198026739702, 35.881168122538597 ], [ -79.034192120317599, 35.881170700319203 ], [ -79.034186213821997, 35.881173105398503 ], [ -79.034179884869999, 35.881175511395398 ], [ -79.034168072859799, 35.881180322351703 ], [ -79.034161743906694, 35.881182728347603 ], [ -79.034155837409699, 35.8811851342249 ], [ -79.034149509437597, 35.8811875386209 ], [ -79.034143602867502, 35.881189773395597 ], [ -79.034137273912904, 35.881192179390297 ], [ -79.034131367414204, 35.881194584466897 ], [ -79.034125039368703, 35.881196818559097 ], [ -79.034119132796903, 35.881199052533098 ], [ -79.034112804823295, 35.881201458526199 ], [ -79.034106898250897, 35.881203692499597 ], [ -79.034100569221195, 35.881205925791299 ], [ -79.034094662648101, 35.8812081597641 ], [ -79.034082005570099, 35.881212627944699 ], [ -79.034076100961002, 35.881214861916 ], [ -79.034069770947795, 35.881217096805401 ], [ -79.034063442825996, 35.881219158193403 ], [ -79.034057536250899, 35.881221392164299 ], [ -79.034051207146305, 35.881223454351399 ], [ -79.034044879096399, 35.8812256884395 ], [ -79.034038549991195, 35.881227750625897 ], [ -79.034032643414704, 35.881229984595699 ], [ -79.034007329936699, 35.881238233336099 ], [ -79.034001423286696, 35.8812402962024 ], [ -79.033995094179204, 35.881242358386601 ], [ -79.033988765981505, 35.881244248668601 ], [ -79.033976108747495, 35.881248373035099 ], [ -79.033963451367896, 35.881252154396599 ], [ -79.033957123240896, 35.881254216578498 ], [ -79.033906493708002, 35.881269341209503 ], [ -79.033900165434304, 35.881271060384996 ], [ -79.033893836250101, 35.881272951461902 ], [ -79.033887507975507, 35.881274669837097 ], [ -79.033880757243793, 35.881276388329297 ], [ -79.033874430023502, 35.881278279404697 ], [ -79.033855442249902, 35.881283436126303 ], [ -79.033848691517093, 35.8812851554163 ], [ -79.0338360339818, 35.881288592961504 ], [ -79.033829705632797, 35.881290139432203 ], [ -79.033822954898795, 35.8812918587208 ], [ -79.033816625567198, 35.881293405990597 ], [ -79.033810297289705, 35.881295125161401 ], [ -79.033803968940106, 35.881296672430203 ], [ -79.033797218204697, 35.881298390917799 ], [ -79.033784560521696, 35.881301485454202 ], [ -79.033777809713897, 35.881303032838801 ], [ -79.033765152029503, 35.881306127373101 ], [ -79.033758401220993, 35.881307674756599 ], [ -79.033752072797498, 35.881309050121203 ], [ -79.033745321988505, 35.881310597503997 ], [ -79.033738992654193, 35.881312145569296 ], [ -79.033732664230101, 35.881313520932999 ], [ -79.033725913348604, 35.881314896413102 ], [ -79.033719585977906, 35.881316442877797 ], [ -79.033712833131005, 35.881317818357701 ], [ -79.033706504706004, 35.881319193720003 ], [ -79.033699753823498, 35.8813205691986 ], [ -79.033693425398397, 35.881321945359801 ], [ -79.033686674515494, 35.881323320837801 ], [ -79.0336803451072, 35.881324696199002 ], [ -79.033673595134999, 35.881325900573898 ], [ -79.033667265726194, 35.881327275934503 ], [ -79.033660514842097, 35.881328650611401 ], [ -79.033654186344094, 35.881329854869001 ], [ -79.033647435388204, 35.881331058443301 ], [ -79.033640684504107, 35.881332434718203 ], [ -79.033630979580295, 35.881334325912903 ], [ -79.033624229749293, 35.881335873288698 ], [ -79.033598914642994, 35.881342749130603 ], [ -79.033592163899698, 35.881344468406397 ], [ -79.033579506344196, 35.881347905924997 ], [ -79.033573178128506, 35.881349796185397 ], [ -79.033560519588903, 35.8813532337022 ], [ -79.033553769826398, 35.881354952975599 ], [ -79.033547440627501, 35.881356844034499 ], [ -79.033534783067793, 35.881360280748801 ], [ -79.033528454850497, 35.881362171806401 ], [ -79.033522126561095, 35.881363890162703 ], [ -79.033509468159707, 35.8813676714772 ], [ -79.033502718394899, 35.8813693907478 ], [ -79.033491748625394, 35.8813726558921 ] ] ] } },
{ "type": "Feature", "properties": { "OBJECTID": 4, "PIN": "9788914884", "PINSTATUS": "A", "OWNER_TYPE": null, "IOFLAG": "N", "OWNER1_LAST": "BOTANICAL GARDEN FOUNDATION", "OWNER1_FIRST": "INC", "OWNER2_LAST": "", "OWNER2_FIRST": "", "ADDRESS1": "CAMPUS BOX 3375", "ADDRESS2": "TOTTEN CENTER", "CITY": "CHAPEL HILL", "STATE": "NC", "ZIPCODE": "275993375", "TOWNSHIP": "7", "SIZE_": 0.7, "UOM": "A", "CALC_ACRES": 0.7, "SUBCODE": null, "LEGAL_DESC": "10 REV BL B MANNING HTS P103/152 ", "RATECODE1": "22", "LANDVALUE": 225000, "BLDGVALUE": 0, "BLDGCNT": null, "VALUATION": 225000, "TAXSTATUS": "A", "FARMUSE": null, "USEVALUE": 0, "DEEDREF": "1960/472", "LEGALREF": null, "DATESOLD": "Apr 17 2008 12:00AM", "TAXSTAMPS": 0, "Name": null, "Acres": null, "Shape__Area": 4309.4453125, "Shape__Length": 256.91026374384597 }, "geometry": { "type": "Polygon", "coordinates": [ [ [ -79.035733361438901, 35.898142145449199 ], [ -79.035831739580601, 35.898343221794001 ], [ -79.035517399395403, 35.8985216696639 ], [ -79.035415895284601, 35.898590212307901 ], [ -79.035202478268502, 35.898423315527303 ], [ -79.035239457798198, 35.897999474963797 ], [ -79.035469593320897, 35.897872173103899 ], [ -79.035733361438901, 35.898142145449199 ] ] ] } },
{ "type": "Feature", "properties": { "OBJECTID": 5, "PIN": "9788903591", "PINSTATUS": "A", "OWNER_TYPE": null, "IOFLAG": "N", "OWNER1_LAST": "BOTANICAL GARDEN FOUNDATION INC", "OWNER1_FIRST": "CB 3375", "OWNER2_LAST": "", "OWNER2_FIRST": "", "ADDRESS1": "TOTTEN CENTER CB 3375", "ADDRESS2": "", "CITY": "CHAPEL HILL", "STATE": "NC", "ZIPCODE": "275993375", "TOWNSHIP": "7", "SIZE_": 0.46, "UOM": "A", "CALC_ACRES": 0.44, "SUBCODE": null, "LEGAL_DESC": "S/E/O 9-10 & 23 BL B WILLIAM L HUNT", "RATECODE1": "22", "LANDVALUE": 45000, "BLDGVALUE": 0, "BLDGCNT": null, "VALUATION": 45000, "TAXSTATUS": "A", "FARMUSE": null, "USEVALUE": 0, "DEEDREF": "2502/96", "LEGALREF": null, "DATESOLD": "Feb  5 2002 12:00AM", "TAXSTAMPS": 0, "Name": null, "Acres": null, "Shape__Area": 2702.2890625, "Shape__Length": 459.228420364812 }, "geometry": { "type": "Polygon", "coordinates": [ [ [ -79.035116739539703, 35.894870309906601 ], [ -79.035120929061307, 35.894801629967603 ], [ -79.034541483517899, 35.894811249145398 ], [ -79.034543160355796, 35.894784807941697 ], [ -79.035540526864807, 35.894773107253101 ], [ -79.035579947896295, 35.894418859528102 ], [ -79.035789152647595, 35.894180387186999 ], [ -79.035966876366004, 35.894290905481498 ], [ -79.0357268242592, 35.894475557439399 ], [ -79.0356826936072, 35.894886447467798 ], [ -79.035116739539703, 35.894870309906601 ] ] ] } },
{ "type": "Feature", "properties": { "OBJECTID": 6, "PIN": "9787895537", "PINSTATUS": "A", "OWNER_TYPE": null, "IOFLAG": "N", "OWNER1_LAST": "BOTANICAL GARDEN FOUNDATION INC", "OWNER1_FIRST": "CB 3375", "OWNER2_LAST": "", "OWNER2_FIRST": "", "ADDRESS1": "TOTTEN CENTER UNC", "ADDRESS2": "", "CITY": "CHAPEL HILL", "STATE": "NC", "ZIPCODE": "275993375", "TOWNSHIP": "7", "SIZE_": 1.08, "UOM": "A", "CALC_ACRES": 1.16, "SUBCODE": null, "LEGAL_DESC": "W/O BARTRAM DR ", "RATECODE1": "22", "LANDVALUE": 180000, "BLDGVALUE": 0, "BLDGCNT": null, "VALUATION": 180000, "TAXSTATUS": "A", "FARMUSE": null, "USEVALUE": 0, "DEEDREF": "2502/96", "LEGALREF": null, "DATESOLD": "Feb  5 2002 12:00AM", "TAXSTAMPS": 0, "Name": "Creekside Bluff", "Acres": 1, "Shape__Area": 7189.171875, "Shape__Length": 789.20919089431004 }, "geometry": { "type": "Polygon", "coordinates": [ [ [ -79.037957940042503, 35.892354012291001 ], [ -79.037357786419193, 35.892265613433999 ], [ -79.036966970519003, 35.8922080489493 ], [ -79.036685086961199, 35.892264799767098 ], [ -79.036449153793399, 35.892212335980602 ], [ -79.036653361729407, 35.892103928468103 ], [ -79.036991382618098, 35.892067762432497 ], [ -79.037580983019694, 35.892153419932797 ], [ -79.037917779377395, 35.892207223031498 ], [ -79.037918540225704, 35.8922100035916 ], [ -79.038484579911596, 35.892132366201203 ], [ -79.038986602881593, 35.891957144528199 ], [ -79.039608862021197, 35.891982876327802 ], [ -79.039746093258003, 35.8919049773775 ], [ -79.039806338637902, 35.8920206070608 ], [ -79.039678822091901, 35.892120434271199 ], [ -79.039053378122702, 35.892094378436703 ], [ -79.038516230594894, 35.892267289609201 ], [ -79.037957940042503, 35.892354012291001 ] ] ] } },
{ "type": "Feature", "properties": { "OBJECTID": 7, "PIN": "9787890212", "PINSTATUS": "A", "OWNER_TYPE": null, "IOFLAG": "N", "OWNER1_LAST": "BOTANICAL GARDEN FOUNDATION INC", "OWNER1_FIRST": "CB 3375", "OWNER2_LAST": "", "OWNER2_FIRST": "", "ADDRESS1": "TOTTEN CENTER UNC", "ADDRESS2": "", "CITY": "CHAPEL HILL", "STATE": "NC", "ZIPCODE": "275993375", "TOWNSHIP": "7", "SIZE_": 0.6, "UOM": "A", "CALC_ACRES": 0.51, "SUBCODE": 2259, "LEGAL_DESC": "N/O MORGAN CREEK ", "RATECODE1": "22", "LANDVALUE": 45000, "BLDGVALUE": 0, "BLDGCNT": null, "VALUATION": 45000, "TAXSTATUS": "A", "FARMUSE": null, "USEVALUE": 0, "DEEDREF": "2502/96", "LEGALREF": null, "DATESOLD": "Feb  5 2002 12:00AM", "TAXSTAMPS": 0, "Name": null, "Acres": null, "Shape__Area": 3180.9921875, "Shape__Length": 414.80133012375899 }, "geometry": { "type": "Polygon", "coordinates": [ [ [ -79.040263720135002, 35.891240272250698 ], [ -79.040273425409197, 35.891237007726403 ], [ -79.040280175853994, 35.891235287287799 ], [ -79.040286505840797, 35.891233739688097 ], [ -79.040292834502097, 35.891231505284303 ], [ -79.040299164317304, 35.891229614681698 ], [ -79.040305493749202, 35.8912289257864 ], [ -79.040318997630607, 35.891227547715602 ], [ -79.0403257493995, 35.8912265148778 ], [ -79.040332501082503, 35.891225310138601 ], [ -79.0403384083872, 35.8912234196737 ], [ -79.040345159812404, 35.891221700030698 ], [ -79.040351488728803, 35.8912199813266 ], [ -79.040357818713503, 35.891218434522798 ], [ -79.040364147628594, 35.891216714218999 ], [ -79.040370898967197, 35.891214823473099 ], [ -79.040376806098394, 35.8912125892045 ], [ -79.040382713057795, 35.891210011933303 ], [ -79.040388619930894, 35.891207262760801 ], [ -79.0403949487593, 35.8912053721535 ], [ -79.040401700353002, 35.891203994710096 ], [ -79.040414358990901, 35.891200213493597 ], [ -79.040420266119895, 35.891197979222802 ], [ -79.0404265958434, 35.891195916712597 ], [ -79.040432501817406, 35.891193339439297 ], [ -79.0404388315402, 35.891191276928502 ], [ -79.040464147823997, 35.891183712887603 ], [ -79.040470477717506, 35.891181994177003 ], [ -79.0404768075242, 35.891180102765603 ], [ -79.040483557874595, 35.891178212013898 ], [ -79.040502546568305, 35.8911730542792 ], [ -79.040509297175802, 35.891171678429302 ], [ -79.040515627325206, 35.891170473819997 ], [ -79.040522379087193, 35.891169441770799 ], [ -79.040529130761996, 35.891168236221297 ], [ -79.040535459929202, 35.891167033210401 ], [ -79.040542211518101, 35.8911656573583 ], [ -79.040554870143097, 35.891161875327498 ], [ -79.040561199049904, 35.891160155812997 ], [ -79.040567529111797, 35.891158780099602 ], [ -79.040574280872207, 35.891157748047597 ], [ -79.040581032545603, 35.891156543294699 ], [ -79.040587361710607, 35.8911553394816 ], [ -79.040594113470107, 35.891154306628898 ], [ -79.040600865143404, 35.891153102674402 ], [ -79.040607195117602, 35.891151555058002 ], [ -79.040613101081803, 35.8911489761769 ], [ -79.040619430451102, 35.891146226852499 ], [ -79.040625337657204, 35.891144165272202 ], [ -79.0406320895882, 35.891143476219298 ], [ -79.040638841778204, 35.891143302069104 ], [ -79.040645594140997, 35.891143471720497 ], [ -79.040652346330901, 35.891143297569599 ], [ -79.040665849554898, 35.891142605465298 ], [ -79.040672600589801, 35.8911420891109 ], [ -79.040679354311806, 35.891141055453303 ], [ -79.040685683560298, 35.891140022736401 ], [ -79.040692435144507, 35.891138646875902 ], [ -79.040699186814905, 35.891137442915998 ], [ -79.040705515889996, 35.891136067195802 ], [ -79.040711845515105, 35.891133833569498 ], [ -79.040717329775902, 35.891130911821499 ], [ -79.040723657867701, 35.891129536100699 ], [ -79.040730411848003, 35.891129018143097 ], [ -79.040737162707899, 35.891128157983204 ], [ -79.040750666045199, 35.891125749258599 ], [ -79.040756996101194, 35.891124373535298 ], [ -79.040763747682703, 35.891122997670998 ], [ -79.040770076755706, 35.891121621947399 ], [ -79.040776828336405, 35.8911202452827 ], [ -79.040783158304606, 35.891118697657198 ], [ -79.040789909076395, 35.891117665593598 ], [ -79.040796239998002, 35.891118006478898 ], [ -79.040802992879307, 35.891119205928 ], [ -79.040809745674295, 35.891120234275299 ], [ -79.040816498208898, 35.891120746919498 ], [ -79.040823249674204, 35.891121087662803 ], [ -79.040843506757696, 35.891121594985997 ], [ -79.040857011654296, 35.891122277268003 ], [ -79.040863763928897, 35.891122275006303 ], [ -79.040877268304101, 35.8911219266801 ], [ -79.040890772505605, 35.891121235349999 ], [ -79.040897524432395, 35.891120546282401 ], [ -79.040904276619798, 35.891120372117499 ], [ -79.040911029154998, 35.891120884756504 ], [ -79.040917359269002, 35.8911215694378 ], [ -79.040924111804401, 35.891122082076002 ], [ -79.040937616527899, 35.8911224213468 ], [ -79.040944368802499, 35.891122419080702 ], [ -79.0409511212506, 35.891122759017001 ], [ -79.040957873612399, 35.891122928651001 ], [ -79.040964625887099, 35.891122926383801 ], [ -79.040971378248599, 35.891123095217601 ], [ -79.040991635072601, 35.891123088412499 ], [ -79.040998386277494, 35.8911229142428 ], [ -79.041005138552094, 35.891122911973397 ], [ -79.041011891000593, 35.891123251906301 ], [ -79.041025395724603, 35.8911235911673 ], [ -79.041038900622894, 35.891124273429199 ], [ -79.041045653159301, 35.891124786060701 ], [ -79.041059158058204, 35.891125468320297 ], [ -79.041065910245607, 35.891125294146498 ], [ -79.041072662170805, 35.891124604269599 ], [ -79.041079414358606, 35.891124430894699 ], [ -79.041086166895397, 35.891124943523998 ], [ -79.041099670811505, 35.8911256249799 ], [ -79.041106425313501, 35.891126137607401 ], [ -79.041126680697502, 35.891127160586997 ], [ -79.041133433409797, 35.891128017015497 ], [ -79.041139764683095, 35.891129043887602 ], [ -79.041146516588199, 35.891130244117598 ], [ -79.041153271353707, 35.8911312724452 ], [ -79.041159600837602, 35.891132643118802 ], [ -79.041166353813097, 35.891134014448703 ], [ -79.041172684455603, 35.891135729722599 ], [ -79.041179437606502, 35.891137444054102 ], [ -79.041185769231703, 35.891139158527501 ], [ -79.041192099962203, 35.891141044901801 ], [ -79.041198852588707, 35.891141729425797 ], [ -79.041205184759605, 35.891142585992299 ], [ -79.041211514683297, 35.8911448153683 ], [ -79.041224177128996, 35.891148587313999 ], [ -79.041230930019594, 35.8911497875389 ], [ -79.041244435625401, 35.891151843386297 ], [ -79.041250765744707, 35.891152528050199 ], [ -79.041257518372603, 35.891153212570899 ], [ -79.041264270824996, 35.891153553289399 ], [ -79.041271023365297, 35.891154065908403 ], [ -79.041277775993606, 35.891154750428001 ], [ -79.041284528357906, 35.891154918444897 ], [ -79.041291280635207, 35.8911549161596 ], [ -79.041298032649706, 35.891154399770301 ], [ -79.041302674173295, 35.891154054396999 ], [ -79.041306545714605, 35.891294675254002 ], [ -79.040714431881995, 35.891241487472399 ], [ -79.040718656560699, 35.891250414517401 ], [ -79.040720768842206, 35.891255737144803 ], [ -79.0407249942146, 35.891266036998097 ], [ -79.040727528919106, 35.891271186783797 ], [ -79.040729642097205, 35.891276336710199 ], [ -79.040732176802805, 35.891281487295302 ], [ -79.040734288998905, 35.891286637221903 ], [ -79.040739358411102, 35.891296937592301 ], [ -79.040741893030798, 35.891301915476802 ], [ -79.040744851229505, 35.8913070651206 ], [ -79.040749919488704, 35.8913170224886 ], [ -79.040752875723399, 35.891322172132803 ], [ -79.040754391167198, 35.891324723755801 ], [ -79.040755832854202, 35.891327149875799 ], [ -79.040757523093603, 35.891331442836801 ], [ -79.040736833173597, 35.891308614107302 ], [ -79.040727544792801, 35.8913007201594 ], [ -79.040722478670602, 35.891296943228198 ], [ -79.040712346775507, 35.891290079367302 ], [ -79.040706858405798, 35.891286819078701 ], [ -79.040700948595898, 35.891283730031802 ], [ -79.040695462365406, 35.891280813543801 ], [ -79.040683642284407, 35.891275666054902 ], [ -79.040677310313299, 35.891273264751398 ], [ -79.040664648683105, 35.891269148946897 ], [ -79.040658317058799, 35.891267434446497 ], [ -79.040651986503406, 35.891265891046899 ], [ -79.040645234508204, 35.8912645196882 ], [ -79.0406321494427, 35.891262463634597 ], [ -79.040625819234094, 35.891261607837301 ], [ -79.040619066602503, 35.8912609232816 ], [ -79.040605561684799, 35.891260240973303 ], [ -79.040598809398602, 35.8912602432206 ], [ -79.040592057198495, 35.891260416568997 ], [ -79.040585305085401, 35.891260763416902 ], [ -79.040578553057898, 35.891261280566397 ], [ -79.040571801116599, 35.891261969616401 ], [ -79.040565049347904, 35.891263002467802 ], [ -79.0405587200882, 35.891264035178402 ], [ -79.0405519684913, 35.891265411031299 ], [ -79.040545639489693, 35.891266958644401 ], [ -79.040538888961294, 35.891268506397203 ], [ -79.040532558166106, 35.891270397012597 ], [ -79.040526229422099, 35.891272459527897 ], [ -79.040520322290604, 35.891274693803702 ], [ -79.040513992735796, 35.891277100120497 ], [ -79.040508085775301, 35.891279676598501 ], [ -79.040502179884399, 35.891282427375401 ], [ -79.040496694622206, 35.891285347514703 ], [ -79.040491211411407, 35.891288440353499 ], [ -79.040480241229602, 35.891294968234597 ], [ -79.040470116409296, 35.891302183437901 ], [ -79.040465054170298, 35.8913061340415 ], [ -79.040460413458106, 35.891310085304603 ], [ -79.040456196322793, 35.891314206729 ], [ -79.040451555695299, 35.891318329093103 ], [ -79.040447760172896, 35.8913226238774 ], [ -79.040443542225802, 35.891327089103399 ], [ -79.040439745891305, 35.891331726090399 ], [ -79.040436372066395, 35.891336363736798 ], [ -79.040432998326196, 35.891341171684999 ], [ -79.040430046113997, 35.891345981891902 ], [ -79.040427094968294, 35.891350960801198 ], [ -79.040424143909206, 35.891356113210399 ], [ -79.040422036800507, 35.891361093439002 ], [ -79.040419507353405, 35.891366416809703 ], [ -79.040417399347106, 35.891371568139903 ], [ -79.040414028525902, 35.891382215121403 ], [ -79.040412765625007, 35.891387538872003 ], [ -79.040410241759702, 35.891404022209102 ], [ -79.040409823974002, 35.891413465705099 ], [ -79.040409826722794, 35.891418960137699 ], [ -79.040410676257906, 35.8914299487233 ], [ -79.040411523044298, 35.891435442876201 ], [ -79.040412369744899, 35.891440765128202 ], [ -79.040413639041702, 35.891446259141198 ], [ -79.040417020519001, 35.891456903085903 ], [ -79.040419132699597, 35.891462053017598 ], [ -79.040421245949503, 35.891467375649398 ], [ -79.040423780555003, 35.891472353540202 ], [ -79.040426315247103, 35.891477504131302 ], [ -79.040429271380603, 35.891482481082598 ], [ -79.040432648957704, 35.891487289191502 ], [ -79.0404356069714, 35.891492095040697 ], [ -79.040443207957296, 35.891501363977497 ], [ -79.040447007873496, 35.891505826545 ], [ -79.040451230214998, 35.891510117870901 ], [ -79.040455452470795, 35.891514237295702 ], [ -79.040460097237499, 35.891518356580299 ], [ -79.040464740936102, 35.891522303964102 ], [ -79.040474873183399, 35.891529854649001 ], [ -79.040479939135906, 35.891533286988903 ], [ -79.040490914908503, 35.891539807586099 ], [ -79.040496402218395, 35.891542896783101 ], [ -79.040508222498602, 35.891548387291898 ], [ -79.040520040470298, 35.891553190196603 ], [ -79.040526372372398, 35.891555419607101 ], [ -79.040532703120604, 35.891557306814903 ], [ -79.040545365426993, 35.8915607358283 ], [ -79.040552118427897, 35.891562107192001 ], [ -79.040558871342697, 35.891563306654398 ], [ -79.040565202643194, 35.891564334355699 ], [ -79.040605160710996, 35.891564998271903 ], [ -79.040095727022504, 35.89159352323 ], [ -79.040097199360204, 35.891590425331302 ], [ -79.040263720135002, 35.891240272250698 ] ] ] } },
{ "type": "Feature", "properties": { "OBJECTID": 8, "PIN": "9787691412", "PINSTATUS": "A", "OWNER_TYPE": null, "IOFLAG": "N", "OWNER1_LAST": "BOTANICAL GARDEN FOUNDATION", "OWNER1_FIRST": "INC", "OWNER2_LAST": "", "OWNER2_FIRST": "", "ADDRESS1": "UNC-CH CB# 3375 TOTTEN CTR", "ADDRESS2": "", "CITY": "CHAPEL HILL", "STATE": "NC", "ZIPCODE": "27599", "TOWNSHIP": "7", "SIZE_": 1.017, "UOM": "A", "CALC_ACRES": 1.05, "SUBCODE": 3015, "LEGAL_DESC": "A CREEKSIDE P94/37", "RATECODE1": "22", "LANDVALUE": 144000, "BLDGVALUE": 0, "BLDGCNT": null, "VALUATION": 144000, "TAXSTATUS": "A", "FARMUSE": null, "USEVALUE": 0, "DEEDREF": "3413/444", "LEGALREF": null, "DATESOLD": "Apr 26 2004 12:00AM", "TAXSTAMPS": 0, "Name": null, "Acres": null, "Shape__Area": 6504.53515625, "Shape__Length": 523.51242709063001 }, "geometry": { "type": "Polygon", "coordinates": [ [ [ -79.046910188534198, 35.892154936936201 ], [ -79.046290928941204, 35.891975632997699 ], [ -79.046860362262393, 35.891477304304097 ], [ -79.046844068465305, 35.891037417640099 ], [ -79.046919877011902, 35.890774858949797 ], [ -79.047204201422105, 35.8905848434514 ], [ -79.047105493541906, 35.8910031518582 ], [ -79.047105187712006, 35.891004410451302 ], [ -79.047017442158094, 35.891344562726303 ], [ -79.046965779521699, 35.891762784003198 ], [ -79.046965750180405, 35.891763018279498 ], [ -79.046910188534198, 35.892154936936201 ] ] ] } },
{ "type": "Feature", "properties": { "OBJECTID": 10, "PIN": "9787665751", "PINSTATUS": "A", "OWNER_TYPE": null, "IOFLAG": "N", "OWNER1_LAST": "BOTANICAL", "OWNER1_FIRST": "GARDEN FOUNDATION", "OWNER2_LAST": "BOTANICAL", "OWNER2_FIRST": "INC", "ADDRESS1": "457A TOTTEN CENTER", "ADDRESS2": null, "CITY": "CHAPEL HILL", "STATE": "NC", "ZIPCODE": "27514", "TOWNSHIP": "7", "SIZE_": 16.98, "UOM": "A", "CALC_ACRES": 16.83, "SUBCODE": null, "LEGAL_DESC": "N/O LINDEN RD ", "RATECODE1": "17", "LANDVALUE": 472800, "BLDGVALUE": 0, "BLDGCNT": null, "VALUATION": 472800, "TAXSTATUS": "A", "FARMUSE": null, "USEVALUE": 0, "DEEDREF": "000/000", "LEGALREF": null, "DATESOLD": null, "TAXSTAMPS": 0, "Name": "Stillhouse Bottom Nature Preserve", "Acres": 23, "Shape__Area": 139098.35546875, "Shape__Length": 2089.14069461087 }, "geometry": { "type": "Polygon", "coordinates": [ [ [ -79.044921595147997, 35.885400256076501 ], [ -79.044482929611704, 35.884995043136897 ], [ -79.043490588393595, 35.884509682926897 ], [ -79.043486648120506, 35.884247842566303 ], [ -79.043881609958405, 35.884231724687297 ], [ -79.043822841291302, 35.883250482998797 ], [ -79.044470555956195, 35.883226368669703 ], [ -79.044791935750695, 35.882179391090503 ], [ -79.044803750446704, 35.882178528043397 ], [ -79.044838023072899, 35.8831010571134 ], [ -79.044848151718298, 35.883103285710099 ], [ -79.044854904085298, 35.883104656839699 ], [ -79.044861234968494, 35.883106028124097 ], [ -79.044867987240394, 35.883107227351601 ], [ -79.044874739608005, 35.883108598480199 ], [ -79.044881069413805, 35.883109797862403 ], [ -79.044887821781899, 35.883111168990197 ], [ -79.044894151587997, 35.883112368371798 ], [ -79.044900903861503, 35.8831135683971 ], [ -79.044907234650097, 35.883114766977997 ], [ -79.044913986923405, 35.883115966203 ], [ -79.0449207391014, 35.883116993526301 ], [ -79.044927068908507, 35.883118192905997 ], [ -79.044947326426893, 35.883121275671598 ], [ -79.044953655156604, 35.883122303149001 ], [ -79.044967159515195, 35.883124358590202 ], [ -79.0449739115993, 35.883125214808501 ], [ -79.044980242198903, 35.883126070382403 ], [ -79.044986994379002, 35.883127098501397 ], [ -79.044993746463106, 35.883127953919299 ], [ -79.045000497469502, 35.8831286382351 ], [ -79.045007249553805, 35.883129493652099 ], [ -79.045013580154603, 35.883130350023798 ], [ -79.045020332143906, 35.883131034338199 ], [ -79.045027084228195, 35.883131888954502 ], [ -79.045047340197002, 35.8831339418944 ], [ -79.045054092091505, 35.8831344551051 ], [ -79.045060421614707, 35.883135139573199 ], [ -79.045073925403102, 35.883136164393697 ], [ -79.0450806773934, 35.883136848704702 ], [ -79.045087429287804, 35.883137361114002 ], [ -79.045094181086398, 35.8831377016215 ], [ -79.0451055754897, 35.883138727218203 ], [ -79.045119078296807, 35.883139752033998 ], [ -79.045125830096097, 35.8831400933393 ], [ -79.045132581991098, 35.883140605746 ], [ -79.045152837388798, 35.883141628059398 ], [ -79.045166340795404, 35.883141966063498 ], [ -79.045173092594794, 35.883142306566597 ], [ -79.045179843219799, 35.883142304066403 ], [ -79.045193346626704, 35.883142642067497 ], [ -79.045220353056806, 35.8831426320587 ], [ -79.045254110613001, 35.883141760032103 ], [ -79.045260439561105, 35.8831414138809 ], [ -79.045267191072597, 35.883141240273801 ], [ -79.045273942487299, 35.883140893965198 ], [ -79.045280693805694, 35.883140375754799 ], [ -79.045287445220694, 35.883140030245102 ], [ -79.045294196538904, 35.883139512033999 ], [ -79.045300947954203, 35.883139167323002 ], [ -79.045307699175396, 35.883138476410103 ], [ -79.045321201812001, 35.883137441584402 ], [ -79.045341454493894, 35.883135372839597 ], [ -79.045347784231097, 35.883134683680296 ], [ -79.045354535452304, 35.883133994364002 ], [ -79.04538153995, 35.883130549489401 ], [ -79.045387868510801, 35.883129516525599 ], [ -79.045401370565699, 35.883127451081997 ], [ -79.045407700108498, 35.883126418116802 ], [ -79.045414450153203, 35.883125385794301 ], [ -79.045421201083599, 35.883124181569499 ], [ -79.045427530625901, 35.883123148603303 ], [ -79.045441032484902, 35.883120738553004 ], [ -79.045447360851199, 35.883119362582804 ], [ -79.0454541117806, 35.883118158356297 ], [ -79.045460441128995, 35.883116782385102 ], [ -79.045467190978698, 35.883115406256799 ], [ -79.045473520326695, 35.883114030284901 ], [ -79.045480271158496, 35.883112654155497 ], [ -79.045486599426297, 35.8831111054823 ], [ -79.045493350161195, 35.883109558250297 ], [ -79.045506007678995, 35.883106462500997 ], [ -79.045512758413196, 35.8831049152679 ], [ -79.045519086583298, 35.883103195491202 ], [ -79.0455254158326, 35.883101647615199 ], [ -79.045537650494097, 35.883097865214097 ], [ -79.045556634420194, 35.8830916768691 ], [ -79.045562542778995, 35.883089442342097 ], [ -79.045568870656396, 35.8830872076581 ], [ -79.045575198630402, 35.883085144875103 ], [ -79.045581104926299, 35.883082738446497 ], [ -79.045587433785101, 35.8830805037612 ], [ -79.0455933400807, 35.883078098131499 ], [ -79.045599667859307, 35.883075691544398 ], [ -79.045617809111107, 35.883068300994303 ], [ -79.045635526717106, 35.883060567596502 ], [ -79.045653245011295, 35.883052319291203 ], [ -79.045658727659699, 35.883049570014002 ], [ -79.045664635624405, 35.883046648675801 ], [ -79.0456705407383, 35.883043899239901 ], [ -79.0456760252534, 35.883040978059803 ], [ -79.045681931154604, 35.883037884820197 ], [ -79.045687414686498, 35.883034963639801 ], [ -79.045693320587205, 35.883031871199201 ], [ -79.045698804118203, 35.883028950018399 ], [ -79.045704288437193, 35.883025685833701 ], [ -79.045715256285106, 35.883019499667498 ], [ -79.045731707271997, 35.8830097071111 ], [ -79.045737190507694, 35.883006269424698 ], [ -79.045742252358195, 35.883003006196198 ], [ -79.045747736576303, 35.882999570108097 ], [ -79.045752798328095, 35.8829961341782 ], [ -79.0457582804829, 35.8829925261889 ], [ -79.045763342233798, 35.882989090258597 ], [ -79.045788651477395, 35.882971051895503 ], [ -79.045798774583602, 35.882963492426299 ], [ -79.045803413670697, 35.882959713649598 ], [ -79.0458084752226, 35.882955933914403 ], [ -79.045813115193795, 35.8829519832356 ], [ -79.045817755261993, 35.882948204457897 ], [ -79.045822815732606, 35.882944252821098 ], [ -79.045832094688905, 35.882936350662803 ], [ -79.045836733577801, 35.882932228081799 ], [ -79.045840951080606, 35.882928277560602 ], [ -79.045850229838507, 35.8829200323975 ], [ -79.045854447242505, 35.8829159099744 ], [ -79.045859086129099, 35.882911787392601 ], [ -79.045863303434601, 35.882907493067698 ], [ -79.045867520837305, 35.882903370644101 ], [ -79.045880172750302, 35.882890488467503 ], [ -79.045884389955901, 35.882886022240399 ], [ -79.045888607258803, 35.882881727914601 ], [ -79.045892402980996, 35.882877262645302 ], [ -79.045896619202793, 35.882872796418098 ], [ -79.045900415035106, 35.882868526236699 ], [ -79.045900436636003, 35.882868502242303 ], [ -79.045900414534003, 35.882867644342397 ], [ -79.045904209661998, 35.882863864280097 ], [ -79.045907582332106, 35.882858369359802 ], [ -79.045917701509694, 35.882843942618301 ], [ -79.045920654067899, 35.882839133862497 ], [ -79.045924027125906, 35.882834324948298 ], [ -79.045927399103306, 35.882829344133 ], [ -79.045930349695496, 35.882824535377701 ], [ -79.045933722752295, 35.882819726463303 ], [ -79.045936673246402, 35.882814746605902 ], [ -79.045939624818999, 35.882809936250901 ], [ -79.045942575312907, 35.882804957193002 ], [ -79.045945948368598, 35.882800149077703 ], [ -79.045951850334703, 35.882790186963298 ], [ -79.045954801906404, 35.882785378206997 ], [ -79.045960703870804, 35.882775416891597 ], [ -79.045963231896394, 35.882770436393201 ], [ -79.045969133859103, 35.8827604758769 ], [ -79.045971662866194, 35.8827554953779 ], [ -79.045974614240706, 35.882750344417197 ], [ -79.045977143246702, 35.882745363118602 ], [ -79.045980093734997, 35.882740382460497 ], [ -79.045982622643393, 35.882735230859303 ], [ -79.045985151648907, 35.882730250359998 ], [ -79.045988103021202, 35.882725098599401 ], [ -79.045990632026005, 35.882720118100004 ], [ -79.0459931599502, 35.8827149656994 ], [ -79.045995688954903, 35.882709985999398 ], [ -79.045998217860898, 35.882704833598297 ], [ -79.046000325285107, 35.882699682155597 ], [ -79.046007912000903, 35.882684225751397 ], [ -79.046010019424401, 35.882679075108101 ], [ -79.046012548328093, 35.882673921907099 ], [ -79.046016761207397, 35.882663618222402 ], [ -79.046019290111104, 35.882658466620299 ], [ -79.046021396549804, 35.882653314377997 ], [ -79.046023503872803, 35.882647990233998 ], [ -79.0460277177324, 35.882637687347902 ], [ -79.046029824072505, 35.882632364003499 ], [ -79.046031931492905, 35.882627212560202 ], [ -79.046034037832001, 35.882621888416203 ], [ -79.046036145251804, 35.8826167369728 ], [ -79.046037830109, 35.882611412987799 ], [ -79.046039936447798, 35.882606089643197 ], [ -79.046042043866805, 35.882600938199701 ], [ -79.046045413579904, 35.882590291028897 ], [ -79.046047519918105, 35.882584968483698 ], [ -79.046049204871395, 35.882579815600401 ], [ -79.046060999840606, 35.8825425524998 ], [ -79.046062261249105, 35.882537229473797 ], [ -79.046063946005305, 35.882531734386298 ], [ -79.046065630858806, 35.8825264104008 ], [ -79.0460668942317, 35.882521087373902 ], [ -79.046068579084803, 35.882515763388298 ], [ -79.046069841377204, 35.882510269259903 ], [ -79.046071103767005, 35.882504946233297 ], [ -79.046073208733105, 35.882495502049998 ], [ -79.0460744711215, 35.882490177424302 ], [ -79.046075734396098, 35.882484684094898 ], [ -79.0460765753038, 35.882479360427901 ], [ -79.0460791008678, 35.882468370571203 ], [ -79.046079941775602, 35.882463047703702 ], [ -79.046081204065999, 35.882457552775499 ], [ -79.046082044973602, 35.882452229907898 ], [ -79.046083308246097, 35.882446734979297 ], [ -79.046084149055403, 35.882441240210198 ], [ -79.046084989962594, 35.882435917342598 ], [ -79.046086252252195, 35.882430422414302 ], [ -79.046087093061104, 35.882424927645197 ], [ -79.046087933967996, 35.882419604777603 ], [ -79.046088774776607, 35.882414110008398 ], [ -79.0460900360832, 35.882408615080401 ], [ -79.046090876989695, 35.8824032922127 ], [ -79.046093399414303, 35.8823868079051 ], [ -79.0460942403204, 35.8823814850373 ], [ -79.046095923900893, 35.882370495498101 ], [ -79.046096342245903, 35.882365000888498 ], [ -79.046097183151602, 35.882359678020599 ], [ -79.046098864766293, 35.882348688481997 ], [ -79.046099284093501, 35.882343193871897 ], [ -79.046100965707595, 35.882332204333203 ], [ -79.046101383167695, 35.882326881625303 ], [ -79.046102223974501, 35.882321386855899 ], [ -79.046102643301296, 35.882315892245799 ], [ -79.046103484107903, 35.882310397476402 ], [ -79.046104321778699, 35.882299408256401 ], [ -79.046105162584993, 35.882293913486997 ], [ -79.046106000255307, 35.882282924266903 ], [ -79.046106418696795, 35.882277600758997 ], [ -79.046110607045506, 35.882222656257198 ], [ -79.046110603909298, 35.882217161806601 ], [ -79.046111441578205, 35.882206172586301 ], [ -79.046111438442395, 35.882200678935199 ], [ -79.046111856784506, 35.8821951827261 ], [ -79.046111853648796, 35.882189689074899 ], [ -79.046112272974199, 35.8821841944645 ], [ -79.046112269837906, 35.882178700013803 ], [ -79.046112688180799, 35.882173205403802 ], [ -79.046112681908198, 35.882162216502202 ], [ -79.046113101233402, 35.882156721891803 ], [ -79.046113065751697, 35.882096283732601 ], [ -79.046112641136602, 35.882090789441101 ], [ -79.046112635060297, 35.882080144342197 ], [ -79.0460843272256, 35.882018172151199 ], [ -79.046083461639796, 35.8819802262175 ], [ -79.046727814719205, 35.881999369969598 ], [ -79.047140571589594, 35.882384707876597 ], [ -79.047116745205201, 35.882971803003798 ], [ -79.0470987773719, 35.883414548113002 ], [ -79.047108844860503, 35.883461674800301 ], [ -79.047541388438603, 35.885486247635399 ], [ -79.045935342648306, 35.885029235307798 ], [ -79.045897941467999, 35.8859211525048 ], [ -79.045339666367994, 35.885943178355802 ], [ -79.044968326060996, 35.885957746724799 ], [ -79.044921595147997, 35.885400256076501 ] ] ] } }
]
}
