{
"type": "FeatureCollection",
"name": "Town-Owned_Cemeteries_%26_Open_Space_Properties",
"crs": { "type": "name", "properties": { "name": "urn:ogc:def:crs:OGC:1.3:CRS84" } },
"features": [
{ "type": "Feature", "properties": { "OBJECTID": 1, "PIN": "9799775667", "PINSTATUS": "A", "OWNER_TYPE": null, "IOFLAG": "N", "OWNER1_LAST": "CHAPEL HILL TOWN", "OWNER1_FIRST": "OF", "OWNER2_LAST": "", "OWNER2_FIRST": "", "ADDRESS1": "405 MARTIN LUTHER KING JR BLVD", "ADDRESS2": "", "CITY": "CHAPEL HILL", "STATE": "NC", "ZIPCODE": "27514", "TOWNSHIP": "7", "SIZE_": 3.09, "UOM": "A", "CALC_ACRES": 2.97, "SUBCODE": null, "LEGAL_DESC": "NW/S STANDISH DR ", "RATECODE1": "22", "LANDVALUE": 272700, "BLDGVALUE": 0, "BLDGCNT": null, "VALUATION": 272700, "TAXSTATUS": "A", "FARMUSE": null, "USEVALUE": 0, "DEEDREF": "1225/241", "LEGALREF": null, "DATESOLD": "Mar 15 1994 12:00AM", "TAXSTAMPS": 0, "Acres": "3.09 acres", "Acres_2": null, "Acres_3": 3.09, "Name": "Town-Owned Property", "Shape__Area": 18365.54296875, "Shape__Length": 689.26434530499705 }, "geometry": { "type": "Polygon", "coordinates": [ [ [ -79.008428946177105, 35.9406481944985 ], [ -79.008431767003202, 35.940648966644503 ], [ -79.008597438770295, 35.940694365685999 ], [ -79.008566809536305, 35.940757431941201 ], [ -79.008531306695502, 35.940830537358501 ], [ -79.008504619069697, 35.940885488145199 ], [ -79.008442233777302, 35.941013948084702 ], [ -79.008379774563096, 35.941142559101202 ], [ -79.008347621373005, 35.941208762729403 ], [ -79.008314383903894, 35.941277202690998 ], [ -79.008282696539993, 35.941342450035798 ], [ -79.008241540047095, 35.941427193613102 ], [ -79.008224229777397, 35.941463594727203 ], [ -79.008230163427996, 35.941464528971103 ], [ -79.008424814774997, 35.941495169454399 ], [ -79.008498830730005, 35.942562938489701 ], [ -79.008180428858395, 35.942561935255704 ], [ -79.007992091388104, 35.942563668309397 ], [ -79.007649197315601, 35.942566786837702 ], [ -79.007650883465203, 35.942535194338902 ], [ -79.007650882944404, 35.942529700009601 ], [ -79.007651305201094, 35.942524205653903 ], [ -79.007651301555001, 35.9424857461483 ], [ -79.007651724794599, 35.942480251792396 ], [ -79.007651708812801, 35.942332422188102 ], [ -79.007641526815604, 35.941855109287602 ], [ -79.007641949069495, 35.94184961573 ], [ -79.007641947508702, 35.941833131938502 ], [ -79.007642368779102, 35.941827637581397 ], [ -79.007642367738597, 35.941816648919897 ], [ -79.007642789992104, 35.9418111545627 ], [ -79.007642789471802, 35.941805660231999 ], [ -79.007643210742103, 35.941800165874902 ], [ -79.007643210221801, 35.941794671544102 ], [ -79.007643631492002, 35.941789177986401 ], [ -79.0076436309717, 35.941783683655601 ], [ -79.007644896748104, 35.9417672013833 ], [ -79.007644896227504, 35.941761705453501 ], [ -79.007648691587207, 35.9417122578364 ], [ -79.007649535645996, 35.941706934550801 ], [ -79.007649957898494, 35.941701440193299 ], [ -79.007650801566399, 35.941691996958902 ], [ -79.007651644625597, 35.941686503374498 ], [ -79.007652066877796, 35.941681009017003 ], [ -79.007652910919802, 35.941675514633097 ], [ -79.007653754977994, 35.941670191347299 ], [ -79.007654176246902, 35.941664698588802 ], [ -79.007655864330204, 35.941653709021303 ], [ -79.007656708387998, 35.941648386535 ], [ -79.007658396470603, 35.941637397766797 ], [ -79.007659662301407, 35.941631903356303 ], [ -79.007660506358803, 35.941626581669397 ], [ -79.007661350399502, 35.941621085686201 ], [ -79.0076626172131, 35.941615592075003 ], [ -79.007663461269999, 35.941610268789098 ], [ -79.007664729066505, 35.941604775177801 ], [ -79.007665573123106, 35.941599451891797 ], [ -79.007666837969595, 35.941593957481103 ], [ -79.007668103815504, 35.941588634968099 ], [ -79.007669370627994, 35.941583140557199 ], [ -79.007670636473605, 35.941577818044202 ], [ -79.007671903285896, 35.941572323633302 ], [ -79.007673169130996, 35.941567001120198 ], [ -79.007674435942903, 35.941561506709299 ], [ -79.007676968615598, 35.941550861682899 ], [ -79.007678234443802, 35.9415453672719 ], [ -79.007679923060493, 35.941540043932498 ], [ -79.007682455764495, 35.941529742701398 ], [ -79.007684144380605, 35.941524419361997 ], [ -79.007686255768704, 35.941519096795403 ], [ -79.007689632016593, 35.9415084517154 ], [ -79.007691743403996, 35.9415031291487 ], [ -79.007693432035197, 35.941497977706803 ], [ -79.007695541455703, 35.941492655140202 ], [ -79.007697653841902, 35.941487504470999 ], [ -79.007699763261698, 35.941482181104703 ], [ -79.007703987049396, 35.941471878966702 ], [ -79.007706520240006, 35.941466727471202 ], [ -79.007708630658399, 35.941461576801899 ], [ -79.007711163848398, 35.941456426105901 ], [ -79.007713274266195, 35.941451274636997 ], [ -79.007720873833406, 35.941435821748797 ], [ -79.007723407038199, 35.941430842150702 ], [ -79.007725517602495, 35.941427236162099 ], [ -79.007726784655304, 35.941424317817898 ], [ -79.007728895054797, 35.941418995250501 ], [ -79.007731006453596, 35.941413843781099 ], [ -79.007733539640697, 35.941408693084497 ], [ -79.007735650055807, 35.941403541615102 ], [ -79.007737761437397, 35.9413982190474 ], [ -79.007740294623503, 35.941393067551097 ], [ -79.007742405037803, 35.941387916881098 ], [ -79.007744938239895, 35.941382938082 ], [ -79.007752538777794, 35.941367484391897 ], [ -79.007755071978593, 35.941362504792899 ], [ -79.007757605162496, 35.941357353296198 ], [ -79.007760137379407, 35.941352374496802 ], [ -79.007762670562698, 35.941347222999902 ], [ -79.007765625550405, 35.941342244173399 ], [ -79.007768158749599, 35.941337265373797 ], [ -79.007774069706301, 35.941327306121302 ], [ -79.0077766029044, 35.941322326521799 ], [ -79.0077795579069, 35.941317518793198 ], [ -79.007788424828703, 35.941302580713 ], [ -79.007791802600806, 35.941297773756602 ], [ -79.007794757584705, 35.941292793330199 ], [ -79.007797712585003, 35.9412879856011 ], [ -79.007804470092793, 35.941278370088398 ], [ -79.007807424092107, 35.941273390461298 ], [ -79.007814179664507, 35.941264118743703 ], [ -79.007820935202005, 35.941254503230098 ], [ -79.007824312986699, 35.941249866571397 ], [ -79.007827690754496, 35.941245058814403 ], [ -79.007831068538394, 35.941240422155502 ], [ -79.007834868092999, 35.941235615170697 ], [ -79.007838245876201, 35.941230979311101 ], [ -79.007842046429801, 35.941226343424297 ], [ -79.007845424212107, 35.9412217067649 ], [ -79.007853023384001, 35.941212777187197 ], [ -79.007860623504101, 35.941203506211899 ], [ -79.007872024222607, 35.941190112643 ], [ -79.007875823789107, 35.941185476755102 ], [ -79.007880046142404, 35.941181012737502 ], [ -79.0078838457583, 35.941176891743098 ], [ -79.007888067110699, 35.941172255028 ], [ -79.007959426089599, 35.941104944826201 ], [ -79.008180254644103, 35.940901295329603 ], [ -79.008229233185801, 35.940855619996597 ], [ -79.008297212808301, 35.940792257869397 ], [ -79.008357590381294, 35.940729068921001 ], [ -79.008424302169203, 35.940653345356701 ], [ -79.008428946177105, 35.9406481944985 ] ] ] } },
{ "type": "Feature", "properties": { "OBJECTID": 2, "PIN": "9789588079", "PINSTATUS": "A", "OWNER_TYPE": null, "IOFLAG": "N", "OWNER1_LAST": "CHAPEL HILL TOWN", "OWNER1_FIRST": "OF", "OWNER2_LAST": "", "OWNER2_FIRST": "", "ADDRESS1": "405 MARTIN LUTHER KING JR BLVD", "ADDRESS2": "", "CITY": "CHAPEL HILL", "STATE": "NC", "ZIPCODE": "27514", "TOWNSHIP": "7", "SIZE_": 5.03, "UOM": "A", "CALC_ACRES": 5.03, "SUBCODE": null, "LEGAL_DESC": "RECREATION AREA B PH 2 FOREST CREEK P53/84", "RATECODE1": "22", "LANDVALUE": 1, "BLDGVALUE": 0, "BLDGCNT": null, "VALUATION": 1, "TAXSTATUS": "A", "FARMUSE": null, "USEVALUE": 0, "DEEDREF": "806/480", "LEGALREF": null, "DATESOLD": "Aug  4 1989 12:00AM", "TAXSTAMPS": 0, "Acres": "5.15 acres", "Acres_2": null, "Acres_3": 5.15, "Name": "Town-Owned Property", "Shape__Area": 30939.171875, "Shape__Length": 1236.10865206228 }, "geometry": { "type": "Polygon", "coordinates": [ [ [ -79.044243591811494, 35.943758361541299 ], [ -79.044381598963099, 35.942847463441602 ], [ -79.045979276270202, 35.942820537398298 ], [ -79.045909982780898, 35.942639034735599 ], [ -79.046817734342696, 35.942657064627497 ], [ -79.047654069601606, 35.942662422425002 ], [ -79.048355196277299, 35.942690329133299 ], [ -79.047930467797698, 35.943544175558301 ], [ -79.047925826180901, 35.943551046090001 ], [ -79.047922028803399, 35.943555683219898 ], [ -79.047917385554001, 35.943559805788503 ], [ -79.047912743083799, 35.9435635853607 ], [ -79.047907255724397, 35.943566849571503 ], [ -79.047901346259295, 35.943569599054399 ], [ -79.047895433640704, 35.943572005542499 ], [ -79.047889100882898, 35.943573897301803 ], [ -79.047882344933399, 35.943575100836803 ], [ -79.047875588679304, 35.943575791077201 ], [ -79.047868832118894, 35.943575964824902 ], [ -79.047862076134905, 35.943575452580603 ], [ -79.047855740764106, 35.943574597175399 ], [ -79.047848983186199, 35.943573054344697 ], [ -79.047836735499004, 35.943570140882798 ], [ -79.047830399721605, 35.9435685978859 ], [ -79.047823642246499, 35.943567226951501 ], [ -79.047817307656302, 35.943566027748602 ], [ -79.047810550181694, 35.9435646568135 ], [ -79.047804214608206, 35.943563456810899 ], [ -79.047797459202698, 35.943562258571298 ], [ -79.047790699965802, 35.943561231430998 ], [ -79.047784365478293, 35.943560204123997 ], [ -79.047777608309502, 35.9435593480802 ], [ -79.047770851039502, 35.943558320938102 ], [ -79.047764093972702, 35.943557636791098 ], [ -79.047757336804196, 35.943556780746199 ], [ -79.047751002520499, 35.943556096433198 ], [ -79.047744245453998, 35.9435554122852 ], [ -79.047740022338502, 35.943555070941102 ], [ -79.047886765597895, 35.943199085419202 ], [ -79.046074203013205, 35.943004939005398 ], [ -79.045200276129293, 35.943364640541098 ], [ -79.044792018947703, 35.943532545520597 ], [ -79.044523084010905, 35.943643391543503 ], [ -79.044243591811494, 35.943758361541299 ] ] ] } },
{ "type": "Feature", "properties": { "OBJECTID": 3, "PIN": "9787279064", "PINSTATUS": null, "OWNER_TYPE": null, "IOFLAG": null, "OWNER1_LAST": null, "OWNER1_FIRST": null, "OWNER2_LAST": null, "OWNER2_FIRST": null, "ADDRESS1": null, "ADDRESS2": null, "CITY": null, "STATE": null, "ZIPCODE": null, "TOWNSHIP": null, "SIZE_": null, "UOM": null, "CALC_ACRES": null, "SUBCODE": null, "LEGAL_DESC": null, "RATECODE1": null, "LANDVALUE": 295528, "BLDGVALUE": null, "BLDGCNT": null, "VALUATION": null, "TAXSTATUS": null, "FARMUSE": null, "USEVALUE": null, "DEEDREF": null, "LEGALREF": null, "DATESOLD": "11/01/2000", "TAXSTAMPS": null, "Acres": "7.36556141611325", "Acres_2": 7, "Acres_3": 7.365561, "Name": "Town-Owned Property", "Shape__Area": 45512.015625, "Shape__Length": 867.53739130763302 }, "geometry": { "type": "Polygon", "coordinates": [ [ [ -79.056234205406994, 35.8851272563438 ], [ -79.057173967786895, 35.884239041701498 ], [ -79.058943557926199, 35.885502012595197 ], [ -79.058643089225797, 35.885827449848698 ], [ -79.058516618177805, 35.885876380121601 ], [ -79.058297985306496, 35.8859609658926 ], [ -79.057724319613101, 35.8861829066024 ], [ -79.057637038695702, 35.886250498675501 ], [ -79.057602725191202, 35.886251850916103 ], [ -79.057597735977296, 35.8862518740601 ], [ -79.057592748796694, 35.886251993147702 ], [ -79.057587767579605, 35.886252208177197 ], [ -79.057582792326599, 35.886252519948201 ], [ -79.057577828932196, 35.886252927658198 ], [ -79.057572878378295, 35.886253430507303 ], [ -79.057567943612398, 35.886254028494101 ], [ -79.057563027582603, 35.886254722416801 ], [ -79.057558133235403, 35.8862555106749 ], [ -79.057553263518301, 35.886256393266898 ], [ -79.057548421377604, 35.886257368592503 ], [ -79.057543607797101, 35.886258438250302 ], [ -79.057538827687694, 35.8862595998392 ], [ -79.057534082031594, 35.886260853358799 ], [ -79.057529374759199, 35.886262198807401 ], [ -79.057524707833593, 35.886263633785298 ], [ -79.057520084203006, 35.886265159090797 ], [ -79.057515505830693, 35.886266772324198 ], [ -79.057510976647393, 35.886268474283298 ], [ -79.057506497633796, 35.886270262568999 ], [ -79.057502071737403, 35.886272137179802 ], [ -79.057497701904794, 35.8862740965154 ], [ -79.057493391082801, 35.8862761397748 ], [ -79.057464012409895, 35.886294957217601 ], [ -79.057443762781205, 35.886303380322403 ], [ -79.057420140147599, 35.8863145522336 ], [ -79.057397782620001, 35.886326582251698 ], [ -79.057375849405204, 35.886339813775798 ], [ -79.057355181295804, 35.886353903407802 ], [ -79.057330720134402, 35.886372802457402 ], [ -79.057303730043998, 35.886397369035201 ], [ -79.057296560195695, 35.886402351942799 ], [ -79.057285169804004, 35.886407851736202 ], [ -79.057272090840499, 35.886411120003601 ], [ -79.057265339447696, 35.886411810778199 ], [ -79.057258587689304, 35.886411985848902 ], [ -79.057245504334603, 35.8864104464771 ], [ -79.057232842743801, 35.886406503486697 ], [ -79.057226932902793, 35.8864037590374 ], [ -79.057216800097393, 35.886396724633997 ], [ -79.057208354047205, 35.886387972025197 ], [ -79.057159752627896, 35.886286521094597 ], [ -79.057069755920296, 35.886126712642302 ], [ -79.056999200073193, 35.886007931465898 ], [ -79.056899497741895, 35.885848127406902 ], [ -79.0568564109373, 35.885785820885701 ], [ -79.0568205096139, 35.885739308330599 ], [ -79.056790100815604, 35.8857029225912 ], [ -79.056762227716504, 35.885671858207999 ], [ -79.056733511144699, 35.885641481815497 ], [ -79.056677762644398, 35.885575918987698 ], [ -79.056669739579505, 35.885567681846503 ], [ -79.056661293795202, 35.885559100298998 ], [ -79.0566570707838, 35.885554638423201 ], [ -79.056652847893403, 35.885550348448596 ], [ -79.056649046499501, 35.8855460574785 ], [ -79.056636377831097, 35.885533185954301 ], [ -79.056632154822395, 35.885528724077702 ], [ -79.056615263272306, 35.885511561775999 ], [ -79.056611462865405, 35.885507271603799 ], [ -79.056607239859403, 35.885502809726297 ], [ -79.056586125436795, 35.885481357444 ], [ -79.056581902432995, 35.885476894766001 ], [ -79.056578102029405, 35.885472604592699 ], [ -79.056565433383795, 35.885459733060699 ], [ -79.056561210382895, 35.885455271181499 ], [ -79.056552764621898, 35.8854466896261 ], [ -79.056548963238797, 35.885442399452302 ], [ -79.056544740359399, 35.885438108674201 ], [ -79.056540517360702, 35.885433646794198 ], [ -79.056523625850005, 35.8854164844794 ], [ -79.056519825332202, 35.885412022402903 ], [ -79.056502933830998, 35.885394860884503 ], [ -79.056498710836294, 35.885390398203498 ], [ -79.056494487962894, 35.885386108223102 ], [ -79.056490686585207, 35.885381817247897 ], [ -79.056486464695098, 35.885377527266797 ], [ -79.056482241702298, 35.885373064585202 ], [ -79.056469573087995, 35.885360193842303 ], [ -79.056465771592798, 35.885355730965003 ], [ -79.056453102983298, 35.885342859420803 ], [ -79.056448879994704, 35.885338397537502 ], [ -79.056445079604202, 35.8853341065603 ], [ -79.056436633868799, 35.885325525795999 ], [ -79.056432410881897, 35.885321063912201 ], [ -79.056423965149193, 35.885312483146897 ], [ -79.0564201636587, 35.885308020268099 ], [ -79.056407495064605, 35.885295149518498 ], [ -79.056403272080402, 35.885290686833997 ], [ -79.056399471695102, 35.885286396654898 ], [ -79.056234205406994, 35.8851272563438 ] ] ] } },
{ "type": "Feature", "properties": { "OBJECTID": 4, "PIN": "978907682062", "PINSTATUS": null, "OWNER_TYPE": null, "IOFLAG": null, "OWNER1_LAST": null, "OWNER1_FIRST": null, "OWNER2_LAST": null, "OWNER2_FIRST": null, "ADDRESS1": null, "ADDRESS2": null, "CITY": null, "STATE": null, "ZIPCODE": null, "TOWNSHIP": null, "SIZE_": null, "UOM": null, "CALC_ACRES": null, "SUBCODE": null, "LEGAL_DESC": null, "RATECODE1": null, "LANDVALUE": 0, "BLDGVALUE": null, "BLDGCNT": null, "VALUATION": null, "TAXSTATUS": null, "FARMUSE": null, "USEVALUE": null, "DEEDREF": null, "LEGALREF": null, "DATESOLD": "08/04/89", "TAXSTAMPS": null, "Acres": "5.02332295647872", "Acres_2": 5, "Acres_3": 5.023323, "Name": "Town-Owned Property", "Shape__Area": 31083.3046875, "Shape__Length": 1231.8588863182399 }, "geometry": { "type": "Polygon", "coordinates": [ [ [ -79.047764093972702, 35.943557636791098 ], [ -79.047886765597895, 35.943199085419202 ], [ -79.046074203013205, 35.943004939005398 ], [ -79.045200276129293, 35.943364640541098 ], [ -79.044792018947305, 35.943532544721101 ], [ -79.044523084010905, 35.943643391543503 ], [ -79.044243592795198, 35.943758362340503 ], [ -79.044381598962602, 35.942847462642099 ], [ -79.045940653183393, 35.942815782778801 ], [ -79.045870455225597, 35.942642912095998 ], [ -79.046786592879599, 35.942651280816897 ], [ -79.046853573249507, 35.942652140999598 ], [ -79.047654069601606, 35.942662422425002 ], [ -79.048355196277299, 35.942690329133299 ], [ -79.047930467798096, 35.943544176357797 ], [ -79.0479245595495, 35.943550626837201 ], [ -79.047911599123694, 35.943562777491103 ], [ -79.047901126781994, 35.9435692281615 ], [ -79.047889100882401, 35.943573896502301 ], [ -79.047882344933896, 35.943575101636299 ], [ -79.047875510704202, 35.943575283410098 ], [ -79.047855740764106, 35.943574597175399 ], [ -79.047848983186199, 35.943573054344697 ], [ -79.047830340828995, 35.943568767408102 ], [ -79.047823642246499, 35.943567226951501 ], [ -79.047804214608703, 35.943563457610402 ], [ -79.0477974356576, 35.943562346528097 ], [ -79.047784365478293, 35.943560204123997 ], [ -79.047777608309502, 35.9435593480802 ], [ -79.047770819675506, 35.943558488050797 ], [ -79.047764093972702, 35.943557636791098 ] ] ] } },
{ "type": "Feature", "properties": { "OBJECTID": 5, "PIN": "9799775667", "PINSTATUS": null, "OWNER_TYPE": null, "IOFLAG": null, "OWNER1_LAST": null, "OWNER1_FIRST": null, "OWNER2_LAST": null, "OWNER2_FIRST": null, "ADDRESS1": null, "ADDRESS2": null, "CITY": null, "STATE": null, "ZIPCODE": null, "TOWNSHIP": null, "SIZE_": null, "UOM": null, "CALC_ACRES": null, "SUBCODE": null, "LEGAL_DESC": null, "RATECODE1": null, "LANDVALUE": null, "BLDGVALUE": null, "BLDGCNT": null, "VALUATION": null, "TAXSTATUS": null, "FARMUSE": null, "USEVALUE": null, "DEEDREF": null, "LEGALREF": null, "DATESOLD": "03/15/1994", "TAXSTAMPS": null, "Acres": "2.9681112960579", "Acres_2": 3, "Acres_3": 2.968111, "Name": "Town-Owned Property", "Shape__Area": 18365.53125, "Shape__Length": 689.26391837307096 }, "geometry": { "type": "Polygon", "coordinates": [ [ [ -79.008428946177105, 35.9406481944985 ], [ -79.008431766019996, 35.940648966644503 ], [ -79.008597437787003, 35.940694365686099 ], [ -79.008566809536305, 35.940757431941201 ], [ -79.008531306695502, 35.940830537358501 ], [ -79.008504620052904, 35.940885488145199 ], [ -79.008442233777302, 35.941013948084702 ], [ -79.008379773579904, 35.941142559101202 ], [ -79.008347621373005, 35.941208762729403 ], [ -79.008314383903894, 35.941277202690998 ], [ -79.008282696539993, 35.941342450035798 ], [ -79.008241540047095, 35.941427193613102 ], [ -79.008224230760504, 35.941463594727097 ], [ -79.008230163427996, 35.941464528971103 ], [ -79.008424814774997, 35.941495169454399 ], [ -79.008498830730005, 35.942562938489701 ], [ -79.008180428858395, 35.942561936055299 ], [ -79.007992091388104, 35.942563668309397 ], [ -79.007649198298793, 35.942566786837602 ], [ -79.007650884448495, 35.942535194338802 ], [ -79.007650883927596, 35.942529700009601 ], [ -79.007651305201094, 35.942524205653903 ], [ -79.007651301555001, 35.9424857461483 ], [ -79.007651723811406, 35.942480251792503 ], [ -79.007651708812801, 35.942332422188102 ], [ -79.007641526815604, 35.941855109287602 ], [ -79.007641949069395, 35.941849614930497 ], [ -79.007641947508702, 35.941833131938502 ], [ -79.007642368779102, 35.941827637581397 ], [ -79.007642367738597, 35.941816648919897 ], [ -79.007642789992104, 35.9418111545627 ], [ -79.007642789471802, 35.941805660231999 ], [ -79.007643210742103, 35.941800165874902 ], [ -79.007643210221801, 35.941794671544102 ], [ -79.007643631492002, 35.941789177986401 ], [ -79.0076436309717, 35.941783683655601 ], [ -79.007644896748005, 35.941767200583797 ], [ -79.007644896227603, 35.941761706252997 ], [ -79.007648691587207, 35.9417122578364 ], [ -79.007649535645996, 35.941706934550801 ], [ -79.007649957898494, 35.941701440992802 ], [ -79.007650801566399, 35.941691996958902 ], [ -79.007651644625597, 35.941686503374498 ], [ -79.007652066877796, 35.941681009017003 ], [ -79.007652910919802, 35.941675514633097 ], [ -79.007653754977994, 35.941670191347299 ], [ -79.007654176246803, 35.9416646977893 ], [ -79.007655864330204, 35.941653709021303 ], [ -79.007656708387998, 35.941648386535 ], [ -79.007658396470603, 35.941637397766797 ], [ -79.007659663284599, 35.941631903356203 ], [ -79.007660507341896, 35.941626580869801 ], [ -79.007661351382794, 35.941621086485597 ], [ -79.0076626172131, 35.941615592075003 ], [ -79.007663461269999, 35.941610268789098 ], [ -79.007664728083299, 35.941604775177801 ], [ -79.007665572139899, 35.941599451891797 ], [ -79.007666837969595, 35.941593957481103 ], [ -79.007668103815504, 35.941588634968099 ], [ -79.007669370627994, 35.941583140557199 ], [ -79.007670636473605, 35.941577818044202 ], [ -79.007671903285896, 35.941572323633302 ], [ -79.007673169130996, 35.941567001120198 ], [ -79.007674435942903, 35.941561506709299 ], [ -79.007676968615598, 35.941550861682899 ], [ -79.007678234443802, 35.9415453672719 ], [ -79.007679923060493, 35.941540043932498 ], [ -79.007682455764495, 35.941529742701398 ], [ -79.007684144380605, 35.941524419361997 ], [ -79.007686255768704, 35.941519096795403 ], [ -79.007689632016593, 35.9415084517154 ], [ -79.007691743403996, 35.9415031291487 ], [ -79.007693432035197, 35.941497977706803 ], [ -79.007695542438896, 35.941492655140102 ], [ -79.007697653841802, 35.941487503671503 ], [ -79.007699764244904, 35.941482181104597 ], [ -79.007703986066204, 35.941471878966702 ], [ -79.007706519256899, 35.941466728270797 ], [ -79.007708630658399, 35.941461576801899 ], [ -79.007711163848398, 35.941456426105901 ], [ -79.007713274266195, 35.941451274636997 ], [ -79.007720873833406, 35.941435821748797 ], [ -79.007723407038199, 35.941430842150702 ], [ -79.007725517602594, 35.941427236961601 ], [ -79.007726784655304, 35.941424317817898 ], [ -79.007728895054797, 35.941418995250501 ], [ -79.007731006453596, 35.941413843781099 ], [ -79.007733539640697, 35.941408693084497 ], [ -79.007735650055807, 35.941403541615102 ], [ -79.007737761437397, 35.9413982190474 ], [ -79.007740294623503, 35.941393067551097 ], [ -79.007742405037803, 35.941387916881098 ], [ -79.007744938239895, 35.941382937282498 ], [ -79.007752537794602, 35.941367484391897 ], [ -79.007755070995302, 35.941362504792998 ], [ -79.007757604179403, 35.9413573540958 ], [ -79.007760137379407, 35.941352374496802 ], [ -79.007762670562698, 35.941347222999902 ], [ -79.007765625550405, 35.941342244173399 ], [ -79.007768158749499, 35.941337264574202 ], [ -79.007774069706301, 35.941327306121302 ], [ -79.0077766029044, 35.941322326521799 ], [ -79.0077795579069, 35.941317518793198 ], [ -79.007788424828703, 35.941302580713 ], [ -79.007791802600707, 35.941297772957 ], [ -79.007794757584705, 35.941292793330199 ], [ -79.007797713568195, 35.941287985601001 ], [ -79.007804469109601, 35.941278370088497 ], [ -79.007807424092107, 35.941273390461298 ], [ -79.007814179664507, 35.941264118743703 ], [ -79.007820935202005, 35.941254503230098 ], [ -79.007824312986699, 35.941249866571397 ], [ -79.007827690754496, 35.941245058814403 ], [ -79.007831068538493, 35.941240422955097 ], [ -79.007834868092999, 35.941235615170697 ], [ -79.007838245876201, 35.941230979311101 ], [ -79.007842045446594, 35.941226343424297 ], [ -79.0078454232289, 35.941221706764999 ], [ -79.007853023384001, 35.941212777986699 ], [ -79.007860623504101, 35.941203506211899 ], [ -79.007872024222607, 35.941190112643 ], [ -79.007875823789107, 35.941185476755102 ], [ -79.007880046142404, 35.941181012737502 ], [ -79.0078838457583, 35.941176891743098 ], [ -79.007888068093905, 35.941172255027901 ], [ -79.007959426089599, 35.941104944826201 ], [ -79.008180254644103, 35.940901295329603 ], [ -79.008229233185801, 35.940855619996597 ], [ -79.008297212808301, 35.9407922586689 ], [ -79.008357590381294, 35.940729068921001 ], [ -79.008424302169203, 35.940653345356701 ], [ -79.008428946177105, 35.9406481944985 ] ] ] } },
{ "type": "Feature", "properties": { "OBJECTID": 6, "PIN": "9789777085", "PINSTATUS": null, "OWNER_TYPE": null, "IOFLAG": null, "OWNER1_LAST": null, "OWNER1_FIRST": null, "OWNER2_LAST": null, "OWNER2_FIRST": null, "ADDRESS1": null, "ADDRESS2": null, "CITY": null, "STATE": null, "ZIPCODE": null, "TOWNSHIP": null, "SIZE_": null, "UOM": null, "CALC_ACRES": null, "SUBCODE": null, "LEGAL_DESC": null, "RATECODE1": null, "LANDVALUE": null, "BLDGVALUE": null, "BLDGCNT": null, "VALUATION": null, "TAXSTATUS": null, "FARMUSE": null, "USEVALUE": null, "DEEDREF": null, "LEGALREF": null, "DATESOLD": "05/01/1974", "TAXSTAMPS": null, "Acres": "0.895919648703301", "Acres_2": 1, "Acres_3": 0.8959196, "Name": "Town-Owned Property", "Shape__Area": 5543.3515625, "Shape__Length": 408.40320869471498 }, "geometry": { "type": "Polygon", "coordinates": [ [ [ -79.041315887319399, 35.940527605042803 ], [ -79.040945079984795, 35.9404262639001 ], [ -79.0408226043143, 35.9403928264204 ], [ -79.0408499952038, 35.940281213992101 ], [ -79.040844081802206, 35.940278125807602 ], [ -79.040838591253305, 35.9402752085795 ], [ -79.040832677939505, 35.9402722922922 ], [ -79.040827186495093, 35.940269546961801 ], [ -79.040821273268705, 35.940266801772303 ], [ -79.040815360129599, 35.940264228480203 ], [ -79.040797199105299, 35.940256851739299 ], [ -79.040784528629402, 35.940252392226299 ], [ -79.040778193970198, 35.940250333967199 ], [ -79.040772281094107, 35.940248276366503 ], [ -79.040765945538794, 35.940246389205399 ], [ -79.040759188288504, 35.940244674882102 ], [ -79.040746518336505, 35.940241245152997 ], [ -79.040740183939405, 35.940239702585302 ], [ -79.040733426863298, 35.940238331256701 ], [ -79.040727092552999, 35.940236959786702 ], [ -79.040713578575506, 35.940234560923201 ], [ -79.040707243455998, 35.940233533247998 ], [ -79.040686973010807, 35.940230964736699 ], [ -79.040680216369097, 35.940230452094703 ], [ -79.0406734596409, 35.940229767554399 ], [ -79.040667125851499, 35.940229426668601 ], [ -79.040653612741494, 35.940228744377897 ], [ -79.040646856273, 35.940228574730099 ], [ -79.040633343509299, 35.940228580028503 ], [ -79.040619830918004, 35.9402289275219 ], [ -79.040613074708901, 35.940229273565599 ], [ -79.040599563446307, 35.9402303086476 ], [ -79.0405860513726, 35.940231686724601 ], [ -79.040572539471299, 35.940233408595702 ], [ -79.0405662053887, 35.940234440488801 ], [ -79.040552694814707, 35.940236849149002 ], [ -79.040546360818297, 35.940238053738398 ], [ -79.040539605125304, 35.940239429565899 ], [ -79.040533272283994, 35.940240977150303 ], [ -79.040526938545099, 35.940242695833099 ], [ -79.040520605703193, 35.940244243416899 ], [ -79.0405138502677, 35.9402461341368 ], [ -79.040501183944102, 35.9402499160947 ], [ -79.0404952731419, 35.9402519784311 ], [ -79.040482607160897, 35.940256447178903 ], [ -79.040476696530106, 35.940258853309999 ], [ -79.040470364116203, 35.940261258781099 ], [ -79.040464453484603, 35.940263664911697 ], [ -79.040458543024698, 35.940266414038 ], [ -79.040452632478207, 35.940268991266301 ], [ -79.040446722017506, 35.940271740391999 ], [ -79.040441234408206, 35.940274661275197 ], [ -79.0404353240327, 35.940277582298201 ], [ -79.040418859492604, 35.9402868598401 ], [ -79.0403103473068, 35.940308530863 ], [ -79.040310344563196, 35.9403030365295 ], [ -79.040309919053698, 35.940297542335799 ], [ -79.040309916310093, 35.940292048002298 ], [ -79.040309066274901, 35.940281060413803 ], [ -79.040309063531396, 35.940275566080302 ], [ -79.040306513426302, 35.940242600915902 ], [ -79.040306088986299, 35.940237278619399 ], [ -79.0403048134432, 35.940220796037202 ], [ -79.040303966152294, 35.940215301982398 ], [ -79.040303541626898, 35.940209807788101 ], [ -79.040302694336603, 35.940204314532799 ], [ -79.040301844302903, 35.940193326144403 ], [ -79.040300997098399, 35.940188003987402 ], [ -79.040300149808004, 35.940182509932498 ], [ -79.040299724299899, 35.940177015738399 ], [ -79.040298029719807, 35.940166027628599 ], [ -79.040297182515801, 35.940160705471598 ], [ -79.040296757007994, 35.9401552112774 ], [ -79.040294215139298, 35.940138729112498 ], [ -79.040293367935902, 35.940133406955397 ], [ -79.040292098864896, 35.940127913039603 ], [ -79.040291251575894, 35.9401224189846 ], [ -79.040290404372698, 35.9401170968274 ], [ -79.040289557083895, 35.940111602772298 ], [ -79.040288287030293, 35.940106108856803 ], [ -79.040287439827594, 35.940100786699396 ], [ -79.040286592539104, 35.940095292644401 ], [ -79.040285323469206, 35.940089798728401 ], [ -79.040284476266905, 35.940084476571101 ], [ -79.040283206214099, 35.9400789826555 ], [ -79.040281937230404, 35.940073660637303 ], [ -79.040291228523202, 35.940076232840397 ], [ -79.040297985835196, 35.940078119087502 ], [ -79.040316990205, 35.940083263351198 ], [ -79.040323324582204, 35.940084806740401 ], [ -79.040330081809699, 35.940086521087899 ], [ -79.040342751547996, 35.940089607064799 ], [ -79.040349508690895, 35.940091150312902 ], [ -79.040355843966495, 35.940092521802399 ], [ -79.040362601109507, 35.940094064250303 ], [ -79.040375270678695, 35.940096807227697 ], [ -79.040388783811906, 35.940099549924703 ], [ -79.040395119088501, 35.940100920612501 ], [ -79.040401876061594, 35.940102120861603 ], [ -79.040408210269803, 35.940103320450802 ], [ -79.040414967242896, 35.940104519899698 ], [ -79.040421302434694, 35.940105719487903 ], [ -79.0404280594082, 35.940106918936003 ], [ -79.040441573183998, 35.940108974835098 ], [ -79.040447907307197, 35.940110002524399 ], [ -79.040461421084004, 35.940112058421299 ], [ -79.040467755121497, 35.940112914211703 ], [ -79.0405015391364, 35.940117194856398 ], [ -79.040507873088899, 35.940117879546399 ], [ -79.040528143241502, 35.940119933193699 ], [ -79.040541656504502, 35.940120958494298 ], [ -79.040548413222496, 35.940121643041898 ], [ -79.040555169767799, 35.940121983793503 ], [ -79.040568683031495, 35.940123009091202 ], [ -79.040582196123097, 35.9401236913912 ], [ -79.0405885299038, 35.940124032281503 ], [ -79.040602042995701, 35.940124714579397 ], [ -79.040635825294103, 35.9401255612282 ], [ -79.040669607160595, 35.940125549178099 ], [ -79.040703387611202, 35.940124679229001 ], [ -79.040710143811097, 35.9401243331803 ], [ -79.040716900097706, 35.940124159028997 ], [ -79.040730412497695, 35.940123467729201 ], [ -79.040737168610605, 35.940122949781198 ], [ -79.040743924810698, 35.940122604530103 ], [ -79.040770949262097, 35.940120534331797 ], [ -79.040777705288093, 35.940119845283199 ], [ -79.040784461400904, 35.940119328132099 ], [ -79.040791216443495, 35.940118639083103 ], [ -79.040797550687103, 35.940117949374901 ], [ -79.0408043066262, 35.940117089226597 ], [ -79.040811062651201, 35.940116399376599 ], [ -79.040831330466403, 35.940113817329298 ], [ -79.040837663639493, 35.940112956520899 ], [ -79.040844419577297, 35.940112095570903 ], [ -79.040857931279007, 35.940110030673502 ], [ -79.040864264364501, 35.940108997966099 ], [ -79.040877776065102, 35.940106933066502 ], [ -79.040884110046605, 35.940105729259301 ], [ -79.040897620588794, 35.940103320562301 ], [ -79.040903954569401, 35.940102115954602 ], [ -79.040910710331801, 35.940100912004802 ], [ -79.040917043242004, 35.940099536298497 ], [ -79.040923799004005, 35.940098332347901 ], [ -79.040930132896705, 35.940096955841 ], [ -79.040936888570997, 35.940095579991898 ], [ -79.040943221393206, 35.940094032386398 ], [ -79.0409499770672, 35.940092656536599 ], [ -79.040956309888898, 35.940091108930403 ], [ -79.040963065562394, 35.940089733079802 ], [ -79.040969399279902, 35.940088014374403 ], [ -79.040982065904899, 35.940084919159403 ], [ -79.040988821402806, 35.940083199511697 ], [ -79.040995154223097, 35.940081651903498 ], [ -79.041001486956205, 35.940079933196699 ], [ -79.041007820584497, 35.940078041791899 ], [ -79.041014576081693, 35.940076322942403 ], [ -79.041020908813607, 35.940074603435001 ], [ -79.041046241356298, 35.940067040209001 ], [ -79.041052573912296, 35.940064977703898 ], [ -79.041058907538201, 35.940063086296398 ], [ -79.041064818312194, 35.9400610239326 ], [ -79.041077484405207, 35.9400568989197 ], [ -79.041083816872202, 35.940054664515202 ], [ -79.041090150409502, 35.940052602007803 ], [ -79.041096061094393, 35.940050367744597 ], [ -79.041102393560294, 35.940048133338998 ], [ -79.041109992724301, 35.940044696820799 ], [ -79.041115903233305, 35.940042119560403 ], [ -79.041121813654499, 35.940039370401998 ], [ -79.041127724162394, 35.940036792341701 ], [ -79.041133634582707, 35.940034043182699 ], [ -79.041139545090303, 35.940031465921301 ], [ -79.041145455509806, 35.940028716761702 ], [ -79.0411513650334, 35.940026139500098 ], [ -79.041163185870104, 35.940020640379998 ], [ -79.041169096375796, 35.940018063117101 ], [ -79.041198648459599, 35.940004317309203 ], [ -79.041204136110807, 35.940001568289503 ], [ -79.041233688182203, 35.939987821673498 ], [ -79.0412391768144, 35.939985072651901 ], [ -79.041245086243904, 35.939982323487698 ], [ -79.041250996568493, 35.939979402425301 ], [ -79.041262817391896, 35.939973904094998 ], [ -79.041268305934295, 35.939970983174199 ], [ -79.041280126755296, 35.939965484842197 ], [ -79.041286037077398, 35.939962563777897 ], [ -79.041291524722894, 35.939959814754197 ], [ -79.041303345364796, 35.939953972624402 ], [ -79.041308833009097, 35.939951223599898 ], [ -79.041320653648498, 35.939945381468299 ], [ -79.041326142274798, 35.939942632442701 ], [ -79.041332052593901, 35.9399397121757 ], [ -79.041337540148206, 35.939936791252002 ], [ -79.041349360783499, 35.939930949117702 ], [ -79.041354848336496, 35.9399280281933 ], [ -79.041360758741206, 35.9399252790232 ], [ -79.041366247276699, 35.939922358097903 ], [ -79.041372157504696, 35.939919265931202 ], [ -79.041377645056201, 35.939916345005699 ], [ -79.041383555371098, 35.939913423936702 ], [ -79.041389042921793, 35.939910503010701 ], [ -79.041394953235795, 35.9399075819411 ], [ -79.041400441769298, 35.939904661813898 ], [ -79.041406352082504, 35.9399017407438 ], [ -79.041411839543301, 35.939898647918902 ], [ -79.041417749855697, 35.939895726848199 ], [ -79.041423238387097, 35.939892805920302 ], [ -79.041429147627596, 35.9398897137511 ], [ -79.041434636158201, 35.939886792822698 ], [ -79.041440546380599, 35.939883699853098 ], [ -79.041446033927699, 35.939880779724099 ], [ -79.041454906188093, 35.939888674418398 ], [ -79.041459131025505, 35.939892793734998 ], [ -79.041463777643798, 35.939896912908097 ], [ -79.041468425157404, 35.939900860182902 ], [ -79.041473071776196, 35.9399049785561 ], [ -79.0415009539214, 35.939928663000401 ], [ -79.041506023219398, 35.939932610130299 ], [ -79.041510669665598, 35.939936385506002 ], [ -79.041515317184206, 35.939940333578399 ], [ -79.041520386395305, 35.939944108809797 ], [ -79.041525032931204, 35.939948056082699 ], [ -79.041530102143199, 35.939951831313799 ], [ -79.041534749575206, 35.939955607487697 ], [ -79.041544888001596, 35.939963157948696 ], [ -79.041549534451704, 35.939966934122303 ], [ -79.041554603577595, 35.939970537454599 ], [ -79.0415596727928, 35.939974313483901 ], [ -79.041564741919501, 35.9399779168156 ], [ -79.041569811135702, 35.939981692844498 ], [ -79.041574880263298, 35.939985296175799 ], [ -79.041576148014997, 35.939986154433797 ], [ -79.041315887319399, 35.940527605042803 ] ] ] } },
{ "type": "Feature", "properties": { "OBJECTID": 7, "PIN": "9787241209", "PINSTATUS": null, "OWNER_TYPE": null, "IOFLAG": null, "OWNER1_LAST": null, "OWNER1_FIRST": null, "OWNER2_LAST": null, "OWNER2_FIRST": null, "ADDRESS1": null, "ADDRESS2": null, "CITY": null, "STATE": null, "ZIPCODE": null, "TOWNSHIP": null, "SIZE_": null, "UOM": null, "CALC_ACRES": null, "SUBCODE": null, "LEGAL_DESC": null, "RATECODE1": null, "LANDVALUE": null, "BLDGVALUE": null, "BLDGCNT": null, "VALUATION": null, "TAXSTATUS": null, "FARMUSE": null, "USEVALUE": null, "DEEDREF": null, "LEGALREF": null, "DATESOLD": "04/17/1997", "TAXSTAMPS": null, "Acres": "2.18546737536871", "Acres_2": 2, "Acres_3": 2.185467, "Name": "Town-Owned Property", "Shape__Area": 13501.47265625, "Shape__Length": 1390.22179759545 }, "geometry": { "type": "Polygon", "coordinates": [ [ [ -79.064527610999605, 35.877803975725001 ], [ -79.064509933237304, 35.877803766800497 ], [ -79.061777354502198, 35.877771460690099 ], [ -79.058806885342904, 35.877792049301902 ], [ -79.058464893427001, 35.877791829128299 ], [ -79.058482951126607, 35.8775094265946 ], [ -79.058484012885003, 35.877492824368701 ], [ -79.058508864769195, 35.877493905425702 ], [ -79.058806676767105, 35.8775068555247 ], [ -79.061725778140499, 35.877642197461199 ], [ -79.064527610999605, 35.877803975725001 ] ] ] } },
{ "type": "Feature", "properties": { "OBJECTID": 8, "PIN": "9799199118", "PINSTATUS": null, "OWNER_TYPE": null, "IOFLAG": null, "OWNER1_LAST": null, "OWNER1_FIRST": null, "OWNER2_LAST": null, "OWNER2_FIRST": null, "ADDRESS1": null, "ADDRESS2": null, "CITY": null, "STATE": null, "ZIPCODE": null, "TOWNSHIP": null, "SIZE_": null, "UOM": null, "CALC_ACRES": null, "SUBCODE": null, "LEGAL_DESC": null, "RATECODE1": null, "LANDVALUE": null, "BLDGVALUE": null, "BLDGCNT": null, "VALUATION": null, "TAXSTATUS": null, "FARMUSE": null, "USEVALUE": null, "DEEDREF": null, "LEGALREF": null, "DATESOLD": "12/29/1975", "TAXSTAMPS": null, "Acres": "3.16633829115115", "Acres_2": 3, "Acres_3": 3.166338, "Name": "Town-Owned Property", "Shape__Area": 19595.05078125, "Shape__Length": 1172.1239658345401 }, "geometry": { "type": "Polygon", "coordinates": [ [ [ -79.023223679272405, 35.949318022177202 ], [ -79.023185371911794, 35.948292837356398 ], [ -79.023176320422095, 35.947664605536801 ], [ -79.023147308214604, 35.946649891246203 ], [ -79.023163247649507, 35.9462761064784 ], [ -79.023463148891906, 35.946504056346498 ], [ -79.023586488866499, 35.946597775832998 ], [ -79.023547228411303, 35.946644485140197 ], [ -79.023327706908006, 35.946905508314899 ], [ -79.023203183839399, 35.947098863036601 ], [ -79.023238302534295, 35.9473297864822 ], [ -79.0234093984689, 35.947538189331098 ], [ -79.023656055774296, 35.947637033926199 ], [ -79.023951700737797, 35.947731575781297 ], [ -79.024258673697503, 35.947580933094301 ], [ -79.024485804271393, 35.947348408168601 ], [ -79.024691402682393, 35.9471370057488 ], [ -79.024696472031295, 35.947142327145897 ], [ -79.024700273696496, 35.947146790911297 ], [ -79.024704498163601, 35.947151253791603 ], [ -79.024708300760295, 35.9471555456592 ], [ -79.024712525228296, 35.9471600085392 ], [ -79.024719284346801, 35.947167046967898 ], [ -79.024723085961497, 35.947171338035702 ], [ -79.0247442080517, 35.947192795343099 ], [ -79.024748855220494, 35.9471969151409 ], [ -79.024755614292502, 35.947203781670098 ], [ -79.024481202980297, 35.947492289578499 ], [ -79.024501477078502, 35.947502587359303 ], [ -79.024314454875395, 35.947700249135004 ], [ -79.0241270096693, 35.947900314856803 ], [ -79.023942097134494, 35.948096087143 ], [ -79.023802370301297, 35.948292708220002 ], [ -79.023791955576101, 35.948306428454302 ], [ -79.023754581617595, 35.9483976060611 ], [ -79.023696406132402, 35.948544922950397 ], [ -79.023679201735305, 35.9485884898573 ], [ -79.023591368894898, 35.948801735437399 ], [ -79.023491625159906, 35.949038876947697 ], [ -79.023346983735607, 35.949275073120099 ], [ -79.023223679272405, 35.949318022177202 ] ] ] } },
{ "type": "Feature", "properties": { "OBJECTID": 9, "PIN": "9777719117", "PINSTATUS": null, "OWNER_TYPE": null, "IOFLAG": null, "OWNER1_LAST": null, "OWNER1_FIRST": null, "OWNER2_LAST": null, "OWNER2_FIRST": null, "ADDRESS1": null, "ADDRESS2": null, "CITY": null, "STATE": null, "ZIPCODE": null, "TOWNSHIP": null, "SIZE_": null, "UOM": null, "CALC_ACRES": null, "SUBCODE": null, "LEGAL_DESC": null, "RATECODE1": null, "LANDVALUE": 227920, "BLDGVALUE": null, "BLDGCNT": null, "VALUATION": null, "TAXSTATUS": null, "FARMUSE": null, "USEVALUE": null, "DEEDREF": null, "LEGALREF": null, "DATESOLD": "04/02/1993", "TAXSTAMPS": null, "Acres": "12.7620175575882", "Acres_2": 13, "Acres_3": 12.76202, "Name": "Town-Owned Property", "Shape__Area": 78826.88671875, "Shape__Length": 1482.21583921452 }, "geometry": { "type": "Polygon", "coordinates": [ [ [ -79.074536290789595, 35.870243575324302 ], [ -79.074134700622594, 35.869853552344303 ], [ -79.073311262040903, 35.869054112664202 ], [ -79.072728860498302, 35.868490025170203 ], [ -79.073536808041794, 35.868022086112298 ], [ -79.074742767814996, 35.869059909578702 ], [ -79.075677169025496, 35.869846047114599 ], [ -79.077272850977707, 35.871212438643603 ], [ -79.076303156542195, 35.871947777517804 ], [ -79.075678575840101, 35.8713417325379 ], [ -79.074536290789595, 35.870243575324302 ] ] ] } },
{ "type": "Feature", "properties": { "OBJECTID": 10, "PIN": "9799578934", "PINSTATUS": null, "OWNER_TYPE": null, "IOFLAG": null, "OWNER1_LAST": null, "OWNER1_FIRST": null, "OWNER2_LAST": null, "OWNER2_FIRST": null, "ADDRESS1": null, "ADDRESS2": null, "CITY": null, "STATE": null, "ZIPCODE": null, "TOWNSHIP": null, "SIZE_": null, "UOM": null, "CALC_ACRES": null, "SUBCODE": null, "LEGAL_DESC": null, "RATECODE1": null, "LANDVALUE": null, "BLDGVALUE": null, "BLDGCNT": null, "VALUATION": null, "TAXSTATUS": null, "FARMUSE": null, "USEVALUE": null, "DEEDREF": null, "LEGALREF": null, "DATESOLD": null, "TAXSTAMPS": null, "Acres": null, "Acres_2": null, "Acres_3": 11.54, "Name": "Chapel Hill Memorial Cemetery", "Shape__Area": 71395.234375, "Shape__Length": 1374.9117589355401 }, "geometry": { "type": "Polygon", "coordinates": [ [ [ -79.0129360026813, 35.943265498965502 ], [ -79.012903039001998, 35.943201395482397 ], [ -79.012869578554302, 35.9431361006692 ], [ -79.012839898217294, 35.9430781985685 ], [ -79.012803965605897, 35.943008427989902 ], [ -79.012774790122094, 35.942951146163502 ], [ -79.012475687065105, 35.942367569827503 ], [ -79.012508374961698, 35.942345792059797 ], [ -79.013576340680501, 35.941726715922798 ], [ -79.013932593657501, 35.941533243726099 ], [ -79.014028058521106, 35.941479179094301 ], [ -79.014164490154897, 35.941407182318102 ], [ -79.014412616514406, 35.941270570594803 ], [ -79.014443434118604, 35.941253289379702 ], [ -79.014713584473995, 35.941101799123501 ], [ -79.014875885791298, 35.9410024011448 ], [ -79.014980527843804, 35.940938313281102 ], [ -79.015083269959504, 35.9408753912222 ], [ -79.015166053306203, 35.940824691345 ], [ -79.015175218817006, 35.940819077337103 ], [ -79.015252212521702, 35.940766788278097 ], [ -79.015328823544095, 35.940715534857198 ], [ -79.015396956266798, 35.940668189906603 ], [ -79.015440003535204, 35.940695482513597 ], [ -79.015492509165298, 35.940733818406699 ], [ -79.015541165514307, 35.940775376937502 ], [ -79.015585670748393, 35.940819905001497 ], [ -79.015625756271405, 35.940867129129899 ], [ -79.015661173249796, 35.9409167591269 ], [ -79.015691706087907, 35.940968490978001 ], [ -79.015717165241398, 35.941022006851 ], [ -79.015737398894899, 35.941076979459602 ], [ -79.015752277690893, 35.941133070608899 ], [ -79.015761714492996, 35.941189937013597 ], [ -79.015457191001602, 35.941245820076801 ], [ -79.015151285002901, 35.941399923216999 ], [ -79.015124171152706, 35.941354693642701 ], [ -79.015094925600295, 35.941310351339702 ], [ -79.014864802377303, 35.941440655921603 ], [ -79.014799895504794, 35.941487936407903 ], [ -79.014499591400295, 35.941753022688097 ], [ -79.014815374375402, 35.942203933146402 ], [ -79.015005060834199, 35.942536478960903 ], [ -79.015013717000301, 35.942551655870403 ], [ -79.015350538519499, 35.943161307324402 ], [ -79.013687850353307, 35.943839459986201 ], [ -79.013402461875799, 35.943376971934697 ], [ -79.013068606593706, 35.943523737831597 ], [ -79.013068524847, 35.943523757468 ], [ -79.013052412664095, 35.943527722557199 ], [ -79.012965006586896, 35.943330836580898 ], [ -79.0129360026813, 35.943265498965502 ] ] ] } },
{ "type": "Feature", "properties": { "OBJECTID": 11, "PIN": "9799108520", "PINSTATUS": null, "OWNER_TYPE": null, "IOFLAG": null, "OWNER1_LAST": null, "OWNER1_FIRST": null, "OWNER2_LAST": null, "OWNER2_FIRST": null, "ADDRESS1": null, "ADDRESS2": null, "CITY": null, "STATE": null, "ZIPCODE": null, "TOWNSHIP": null, "SIZE_": null, "UOM": null, "CALC_ACRES": null, "SUBCODE": null, "LEGAL_DESC": null, "RATECODE1": null, "LANDVALUE": null, "BLDGVALUE": null, "BLDGCNT": null, "VALUATION": null, "TAXSTATUS": null, "FARMUSE": null, "USEVALUE": null, "DEEDREF": null, "LEGALREF": null, "DATESOLD": null, "TAXSTAMPS": null, "Acres": null, "Acres_2": null, "Acres_3": 0.19, "Name": "Barbee-Hargraves Cemetery", "Shape__Area": 1154.5234375, "Shape__Length": 129.86865910483601 }, "geometry": { "type": "Polygon", "coordinates": [ [ [ -79.027290668594802, 35.922356165955499 ], [ -79.027105312015806, 35.922294056236503 ], [ -79.0271010881373, 35.922289421539197 ], [ -79.027097287365294, 35.922284957796499 ], [ -79.027090529339503, 35.9222753450358 ], [ -79.027087572085506, 35.922270537927403 ], [ -79.027084615729905, 35.922265559136399 ], [ -79.027079546536797, 35.922255258188301 ], [ -79.027077433699205, 35.922250108441197 ], [ -79.027072362709504, 35.922234141968097 ], [ -79.027071093389907, 35.922228819082299 ], [ -79.027069400065699, 35.922217831399202 ], [ -79.027068976060804, 35.922212337557099 ], [ -79.027068970670896, 35.922195853846098 ], [ -79.027069391082506, 35.922190360002503 ], [ -79.027070233702204, 35.9221850371136 ], [ -79.027071499428502, 35.922179542541798 ], [ -79.0270723420482, 35.922174219652298 ], [ -79.027074029084304, 35.9221687250797 ], [ -79.027075716120393, 35.922163402916802 ], [ -79.027077823568106, 35.922158250253901 ], [ -79.027079933710695, 35.922152927362902 ], [ -79.027082465163105, 35.922147947109501 ], [ -79.027084996615599, 35.922142795900498 ], [ -79.027087949378, 35.922137817101401 ], [ -79.027090902140301, 35.922133007074898 ], [ -79.027097653878002, 35.922123391385703 ], [ -79.027105250031994, 35.9221144609715 ], [ -79.0271094703172, 35.922109995764103 ], [ -79.027113691500702, 35.922105873922 ], [ -79.0271183330958, 35.922101752079698 ], [ -79.027122976487505, 35.922097801920003 ], [ -79.027127618082602, 35.922094023442902 ], [ -79.027132683682495, 35.922090244965702 ], [ -79.027138171490506, 35.922086809853901 ], [ -79.027143236192103, 35.922083374742002 ], [ -79.027148723101902, 35.922080282995701 ], [ -79.027154632219805, 35.922077190521797 ], [ -79.027160120027901, 35.9220742711856 ], [ -79.0271660300441, 35.922071522077196 ], [ -79.027171938263805, 35.922069117061902 ], [ -79.027178270488207, 35.922066711319097 ], [ -79.027190934937096, 35.922062588019799 ], [ -79.027203599385999, 35.9220591507245 ], [ -79.027209930712104, 35.922057775806302 ], [ -79.027216685144694, 35.922056571843498 ], [ -79.027223439577298, 35.922055540291097 ], [ -79.027236949340903, 35.922054163190502 ], [ -79.027456501189604, 35.922115405954301 ], [ -79.027290668594802, 35.922356165955499 ] ] ] } },
{ "type": "Feature", "properties": { "OBJECTID": 12, "PIN": "9788669446", "PINSTATUS": null, "OWNER_TYPE": null, "IOFLAG": null, "OWNER1_LAST": null, "OWNER1_FIRST": null, "OWNER2_LAST": null, "OWNER2_FIRST": null, "ADDRESS1": null, "ADDRESS2": null, "CITY": null, "STATE": null, "ZIPCODE": null, "TOWNSHIP": null, "SIZE_": null, "UOM": null, "CALC_ACRES": null, "SUBCODE": null, "LEGAL_DESC": null, "RATECODE1": null, "LANDVALUE": null, "BLDGVALUE": null, "BLDGCNT": null, "VALUATION": null, "TAXSTATUS": null, "FARMUSE": null, "USEVALUE": null, "DEEDREF": null, "LEGALREF": null, "DATESOLD": null, "TAXSTAMPS": null, "Acres": null, "Acres_2": null, "Acres_3": 6.74, "Name": "Old Chapel Hill Cemetery", "Shape__Area": 41661.0390625, "Shape__Length": 939.22648022359101 }, "geometry": { "type": "Polygon", "coordinates": [ [ [ -79.043600155703203, 35.910628300491901 ], [ -79.043947556681502, 35.910626623431398 ], [ -79.044012116804296, 35.910582987831603 ], [ -79.045664939671994, 35.910267283470297 ], [ -79.045776169070507, 35.910641197486498 ], [ -79.045753823477696, 35.9114277552044 ], [ -79.043573151447404, 35.911425846794302 ], [ -79.043509821118207, 35.911401146593597 ], [ -79.042914256949501, 35.911488248071102 ], [ -79.0425070039188, 35.910868053573701 ], [ -79.042509958477794, 35.9108673660173 ], [ -79.0435275736249, 35.910668504097004 ], [ -79.043600155703203, 35.910628300491901 ] ] ] } },
{ "type": "Feature", "properties": { "OBJECTID": 13, "PIN": "9778998700", "PINSTATUS": null, "OWNER_TYPE": null, "IOFLAG": null, "OWNER1_LAST": null, "OWNER1_FIRST": null, "OWNER2_LAST": null, "OWNER2_FIRST": null, "ADDRESS1": null, "ADDRESS2": null, "CITY": null, "STATE": null, "ZIPCODE": null, "TOWNSHIP": null, "SIZE_": null, "UOM": null, "CALC_ACRES": null, "SUBCODE": null, "LEGAL_DESC": null, "RATECODE1": null, "LANDVALUE": null, "BLDGVALUE": null, "BLDGCNT": null, "VALUATION": null, "TAXSTATUS": null, "FARMUSE": null, "USEVALUE": null, "DEEDREF": null, "LEGALREF": null, "DATESOLD": null, "TAXSTAMPS": null, "Acres": null, "Acres_2": null, "Acres_3": 1.54, "Name": "West Chapel Hill Cemetery", "Shape__Area": 9502.95703125, "Shape__Length": 430.93611229141999 }, "geometry": { "type": "Polygon", "coordinates": [ [ [ -79.067680069120897, 35.9205459849682 ], [ -79.067677535871795, 35.920546329068003 ], [ -79.067667405570305, 35.920547880063602 ], [ -79.067657274370504, 35.9205496034728 ], [ -79.067647144069099, 35.920551497840599 ], [ -79.067637435975797, 35.9205535638946 ], [ -79.067627306572604, 35.920555629948502 ], [ -79.067617596682695, 35.920557867688501 ], [ -79.0676078903861, 35.920560276387199 ], [ -79.067598182292798, 35.920562858226802 ], [ -79.067588474199596, 35.920565437884001 ], [ -79.067578766106294, 35.920568020451 ], [ -79.067569058013007, 35.9205709449352 ], [ -79.067559352614694, 35.920573868691797 ], [ -79.067550067627906, 35.920576964134398 ], [ -79.067540359534604, 35.920580061031899 ], [ -79.067531074547801, 35.920583499846501 ], [ -79.067521790459395, 35.9205867669749 ], [ -79.067512505472607, 35.9205903789302 ], [ -79.067503220485804, 35.9205939894305 ], [ -79.067497312266198, 35.920596568359102 ], [ -79.067490439256005, 35.919953220903103 ], [ -79.067930063077895, 35.919948789038202 ], [ -79.068303099279404, 35.919945027918203 ], [ -79.068426477493801, 35.920070982418899 ], [ -79.068580278951899, 35.9202259365304 ], [ -79.068751400826997, 35.920395988568202 ], [ -79.068850693412003, 35.920493455524301 ], [ -79.067930542778299, 35.9205171926071 ], [ -79.067679628048097, 35.920523663578102 ], [ -79.067680069120897, 35.9205459849682 ] ] ] } },
{ "type": "Feature", "properties": { "OBJECTID": 14, "PIN": "9799555951", "PINSTATUS": "A", "OWNER_TYPE": null, "IOFLAG": "N", "OWNER1_LAST": "TOWN OF CHAPEL HILL", "OWNER1_FIRST": null, "OWNER2_LAST": null, "OWNER2_FIRST": null, "ADDRESS1": "405 MARTIN LUTHER KING JR BLVD", "ADDRESS2": null, "CITY": "CHAPEL HILL", "STATE": "NC", "ZIPCODE": "27516", "TOWNSHIP": "7", "SIZE_": 33.2, "UOM": "A", "CALC_ACRES": 33.64, "SUBCODE": null, "LEGAL_DESC": "E/S AMERICAN LEGION RD", "RATECODE1": "22", "LANDVALUE": 180800, "BLDGVALUE": 672600, "BLDGCNT": 2, "VALUATION": 853400, "TAXSTATUS": "A", "FARMUSE": null, "USEVALUE": 0, "DEEDREF": "6282/545", "LEGALREF": null, "DATESOLD": "Mar 30 2017 12:00AM", "TAXSTAMPS": null, "Acres": "33.6364605214008", "Acres_2": null, "Acres_3": 33.64, "Name": "American Legion Property", "Shape__Area": 208104.3515625, "Shape__Length": 1901.43003463287 }, "geometry": { "type": "Polygon", "coordinates": [ [ [ -79.014044690828598, 35.937956590479601 ], [ -79.013994438173299, 35.937933417944002 ], [ -79.013764288899196, 35.937826309973801 ], [ -79.013583126554195, 35.937747181352002 ], [ -79.013308216924401, 35.937628403900902 ], [ -79.013002058499097, 35.937495892139502 ], [ -79.012793872135404, 35.937405777614401 ], [ -79.012790427096306, 35.936994909267298 ], [ -79.012789556628803, 35.936831283282203 ], [ -79.012783588222007, 35.936482225455897 ], [ -79.012778897219604, 35.9361939491789 ], [ -79.012773779517403, 35.935883866118097 ], [ -79.012769941016202, 35.935650016351197 ], [ -79.012765681205195, 35.935417025616601 ], [ -79.012761842703995, 35.935181630306197 ], [ -79.012758004202695, 35.934947780643903 ], [ -79.012757150803196, 35.934891464717403 ], [ -79.014978152698205, 35.934923967884103 ], [ -79.0157521276723, 35.934946692526204 ], [ -79.016311404395097, 35.936053705558301 ], [ -79.016624842767399, 35.936670217906801 ], [ -79.016657792073701, 35.936735800995301 ], [ -79.017693020488593, 35.938893548739102 ], [ -79.017019800556795, 35.939345181003297 ], [ -79.016625364688593, 35.939159123020197 ], [ -79.016175111101902, 35.938949322146797 ], [ -79.014044690828598, 35.937956590479601 ] ] ] } }
]
}
